<?xml version="1.0"?>
    <gpx version="1.1"
    creator="Avenza Maps - https://www.avenzamaps.com/maps/how-it-works.html"
xmlns:xsi="http://www.w3.org/2001/XMLSchema-instance"
    xmlns="http://www.topografix.com/GPX/1/1"
xsi:schemaLocation="http://www.topografix.com/GPX/1/1 http://www.topografix.com/GPX/1/1/gpx.xsd">
<trk>
    <name><![CDATA[159.2 Jalan Simpang Tambang Emas - Rasau]]></name>
    <desc><![CDATA[Description:]]></desc>
    <trkseg>
        <trkpt lat="-2.20513118333333" lon="102.380611883333">
            <ele>112.393</ele>
            <time>2024-08-09T17:03:55+07:00</time>
        </trkpt>
        <trkpt lat="-2.20508375" lon="102.380595366667">
            <ele>111.664</ele>
            <time>2024-08-09T17:03:57+07:00</time>
        </trkpt>
        <trkpt lat="-2.20498165" lon="102.38060325">
            <ele>112.334</ele>
            <time>2024-08-09T17:03:59+07:00</time>
        </trkpt>
        <trkpt lat="-2.20482391666667" lon="102.380619483333">
            <ele>119.654</ele>
            <time>2024-08-09T17:04:01+07:00</time>
        </trkpt>
        <trkpt lat="-2.20468096666667" lon="102.380605183333">
            <ele>119.656</ele>
            <time>2024-08-09T17:04:03+07:00</time>
        </trkpt>
        <trkpt lat="-2.20454806666667" lon="102.380579633333">
            <ele>118.793</ele>
            <time>2024-08-09T17:04:05+07:00</time>
        </trkpt>
        <trkpt lat="-2.20437346666667" lon="102.380572566667">
            <ele>117.811</ele>
            <time>2024-08-09T17:04:07+07:00</time>
        </trkpt>
        <trkpt lat="-2.20418633333333" lon="102.380565">
            <ele>116.617</ele>
            <time>2024-08-09T17:04:09+07:00</time>
        </trkpt>
        <trkpt lat="-2.20401495" lon="102.380582316667">
            <ele>118.65</ele>
            <time>2024-08-09T17:04:11+07:00</time>
        </trkpt>
        <trkpt lat="-2.20386335" lon="102.38057355">
            <ele>117.925</ele>
            <time>2024-08-09T17:04:13+07:00</time>
        </trkpt>
        <trkpt lat="-2.20370438333333" lon="102.380555366667">
            <ele>119.368</ele>
            <time>2024-08-09T17:04:15+07:00</time>
        </trkpt>
        <trkpt lat="-2.20353916666667" lon="102.380559916667">
            <ele>116.897</ele>
            <time>2024-08-09T17:04:17+07:00</time>
        </trkpt>
        <trkpt lat="-2.20336703333333" lon="102.380556266667">
            <ele>115.516</ele>
            <time>2024-08-09T17:04:19+07:00</time>
        </trkpt>
        <trkpt lat="-2.203177" lon="102.380530833333">
            <ele>113.761</ele>
            <time>2024-08-09T17:04:21+07:00</time>
        </trkpt>
        <trkpt lat="-2.20300723333333" lon="102.380515966667">
            <ele>113.372</ele>
            <time>2024-08-09T17:04:23+07:00</time>
        </trkpt>
        <trkpt lat="-2.2028583" lon="102.38051205">
            <ele>111.105</ele>
            <time>2024-08-09T17:04:25+07:00</time>
        </trkpt>
        <trkpt lat="-2.20268863333333" lon="102.38052215">
            <ele>109.393</ele>
            <time>2024-08-09T17:04:27+07:00</time>
        </trkpt>
        <trkpt lat="-2.20251108333333" lon="102.380526416667">
            <ele>108.996</ele>
            <time>2024-08-09T17:04:29+07:00</time>
        </trkpt>
        <trkpt lat="-2.20235246666667" lon="102.380545716667">
            <ele>108.266</ele>
            <time>2024-08-09T17:04:31+07:00</time>
        </trkpt>
        <trkpt lat="-2.20221498333333" lon="102.380605166667">
            <ele>106.327</ele>
            <time>2024-08-09T17:04:33+07:00</time>
        </trkpt>
        <trkpt lat="-2.20208898333333" lon="102.380720816667">
            <ele>107.213</ele>
            <time>2024-08-09T17:04:35+07:00</time>
        </trkpt>
        <trkpt lat="-2.2019335" lon="102.380852583333">
            <ele>103.806</ele>
            <time>2024-08-09T17:04:37+07:00</time>
        </trkpt>
        <trkpt lat="-2.20179885" lon="102.380963">
            <ele>102.72</ele>
            <time>2024-08-09T17:04:39+07:00</time>
        </trkpt>
        <trkpt lat="-2.20165985" lon="102.381065583333">
            <ele>100.02</ele>
            <time>2024-08-09T17:04:41+07:00</time>
        </trkpt>
        <trkpt lat="-2.2015223" lon="102.38119095">
            <ele>97.456</ele>
            <time>2024-08-09T17:04:43+07:00</time>
        </trkpt>
        <trkpt lat="-2.20137508333333" lon="102.381306066667">
            <ele>98.594</ele>
            <time>2024-08-09T17:04:45+07:00</time>
        </trkpt>
        <trkpt lat="-2.20124158333333" lon="102.381409566667">
            <ele>98.481</ele>
            <time>2024-08-09T17:04:47+07:00</time>
        </trkpt>
        <trkpt lat="-2.20110215" lon="102.38150355">
            <ele>96.704</ele>
            <time>2024-08-09T17:04:49+07:00</time>
        </trkpt>
        <trkpt lat="-2.2009518" lon="102.381601066667">
            <ele>96.153</ele>
            <time>2024-08-09T17:04:51+07:00</time>
        </trkpt>
        <trkpt lat="-2.20079286666667" lon="102.38170615">
            <ele>95.627</ele>
            <time>2024-08-09T17:04:53+07:00</time>
        </trkpt>
        <trkpt lat="-2.20064648333333" lon="102.381822916667">
            <ele>91.242</ele>
            <time>2024-08-09T17:04:55+07:00</time>
        </trkpt>
        <trkpt lat="-2.2005257" lon="102.381937216667">
            <ele>92.489</ele>
            <time>2024-08-09T17:04:57+07:00</time>
        </trkpt>
        <trkpt lat="-2.20038048333333" lon="102.382044866667">
            <ele>95.059</ele>
            <time>2024-08-09T17:04:59+07:00</time>
        </trkpt>
        <trkpt lat="-2.20021243333333" lon="102.382157083333">
            <ele>98.345</ele>
            <time>2024-08-09T17:05:01+07:00</time>
        </trkpt>
        <trkpt lat="-2.20001683333333" lon="102.382247666667">
            <ele>100.358</ele>
            <time>2024-08-09T17:05:03+07:00</time>
        </trkpt>
        <trkpt lat="-2.19984045" lon="102.382355933333">
            <ele>97.793</ele>
            <time>2024-08-09T17:05:05+07:00</time>
        </trkpt>
        <trkpt lat="-2.19968338333333" lon="102.3824718">
            <ele>98.237</ele>
            <time>2024-08-09T17:05:07+07:00</time>
        </trkpt>
        <trkpt lat="-2.19949383333333" lon="102.3825884">
            <ele>94.717</ele>
            <time>2024-08-09T17:05:09+07:00</time>
        </trkpt>
        <trkpt lat="-2.19932745" lon="102.382724583333">
            <ele>99.695</ele>
            <time>2024-08-09T17:05:11+07:00</time>
        </trkpt>
        <trkpt lat="-2.19914248333333" lon="102.382834483333">
            <ele>99.178</ele>
            <time>2024-08-09T17:05:13+07:00</time>
        </trkpt>
        <trkpt lat="-2.19898176666667" lon="102.382956683333">
            <ele>99.384</ele>
            <time>2024-08-09T17:05:15+07:00</time>
        </trkpt>
        <trkpt lat="-2.19885955" lon="102.383046266667">
            <ele>105.639</ele>
            <time>2024-08-09T17:05:17+07:00</time>
        </trkpt>
        <trkpt lat="-2.19873726666667" lon="102.383145166667">
            <ele>109.49</ele>
            <time>2024-08-09T17:05:19+07:00</time>
        </trkpt>
        <trkpt lat="-2.1985842" lon="102.383264683333">
            <ele>110.04</ele>
            <time>2024-08-09T17:05:21+07:00</time>
        </trkpt>
        <trkpt lat="-2.1984222" lon="102.3834021">
            <ele>112.887</ele>
            <time>2024-08-09T17:05:23+07:00</time>
        </trkpt>
        <trkpt lat="-2.19824068333333" lon="102.383529633333">
            <ele>117.95</ele>
            <time>2024-08-09T17:05:25+07:00</time>
        </trkpt>
        <trkpt lat="-2.19809378333333" lon="102.38367555">
            <ele>121.205</ele>
            <time>2024-08-09T17:05:27+07:00</time>
        </trkpt>
        <trkpt lat="-2.19794246666667" lon="102.38380375">
            <ele>115.805</ele>
            <time>2024-08-09T17:05:29+07:00</time>
        </trkpt>
        <trkpt lat="-2.1977956" lon="102.3839061">
            <ele>109.695</ele>
            <time>2024-08-09T17:05:31+07:00</time>
        </trkpt>
        <trkpt lat="-2.19764598333333" lon="102.384046166667">
            <ele>101.273</ele>
            <time>2024-08-09T17:05:33+07:00</time>
        </trkpt>
        <trkpt lat="-2.19748906666667" lon="102.384172483333">
            <ele>99.349</ele>
            <time>2024-08-09T17:05:35+07:00</time>
        </trkpt>
        <trkpt lat="-2.19730111666667" lon="102.3843185">
            <ele>93.712</ele>
            <time>2024-08-09T17:05:37+07:00</time>
        </trkpt>
        <trkpt lat="-2.19710508333333" lon="102.384474033333">
            <ele>85.308</ele>
            <time>2024-08-09T17:05:39+07:00</time>
        </trkpt>
        <trkpt lat="-2.19692643333333" lon="102.38460625">
            <ele>85.038</ele>
            <time>2024-08-09T17:05:41+07:00</time>
        </trkpt>
        <trkpt lat="-2.19679573333333" lon="102.384705833333">
            <ele>81.654</ele>
            <time>2024-08-09T17:05:43+07:00</time>
        </trkpt>
        <trkpt lat="-2.19669158333333" lon="102.384804033333">
            <ele>81.432</ele>
            <time>2024-08-09T17:05:45+07:00</time>
        </trkpt>
        <trkpt lat="-2.19657881666667" lon="102.384883483333">
            <ele>76.125</ele>
            <time>2024-08-09T17:05:47+07:00</time>
        </trkpt>
        <trkpt lat="-2.19644135" lon="102.384972416667">
            <ele>79.546</ele>
            <time>2024-08-09T17:05:49+07:00</time>
        </trkpt>
        <trkpt lat="-2.19629336666667" lon="102.38505295">
            <ele>75.841</ele>
            <time>2024-08-09T17:05:51+07:00</time>
        </trkpt>
        <trkpt lat="-2.19616206666667" lon="102.3851381">
            <ele>70.839</ele>
            <time>2024-08-09T17:05:53+07:00</time>
        </trkpt>
        <trkpt lat="-2.19603058333333" lon="102.385224733333">
            <ele>69.629</ele>
            <time>2024-08-09T17:05:55+07:00</time>
        </trkpt>
        <trkpt lat="-2.1959193" lon="102.38531215">
            <ele>70.814</ele>
            <time>2024-08-09T17:05:57+07:00</time>
        </trkpt>
        <trkpt lat="-2.19575836666667" lon="102.385440883333">
            <ele>72.489</ele>
            <time>2024-08-09T17:05:59+07:00</time>
        </trkpt>
        <trkpt lat="-2.19555263333333" lon="102.385592983333">
            <ele>73.34</ele>
            <time>2024-08-09T17:06:01+07:00</time>
        </trkpt>
        <trkpt lat="-2.1953299" lon="102.385762083333">
            <ele>72.58</ele>
            <time>2024-08-09T17:06:03+07:00</time>
        </trkpt>
        <trkpt lat="-2.19513323333333" lon="102.385890783333">
            <ele>74.565</ele>
            <time>2024-08-09T17:06:05+07:00</time>
        </trkpt>
        <trkpt lat="-2.19498776666667" lon="102.385989783333">
            <ele>84.33</ele>
            <time>2024-08-09T17:06:07+07:00</time>
        </trkpt>
        <trkpt lat="-2.19480068333333" lon="102.386130766667">
            <ele>84.719</ele>
            <time>2024-08-09T17:06:09+07:00</time>
        </trkpt>
        <trkpt lat="-2.19460345" lon="102.38628325">
            <ele>85.088</ele>
            <time>2024-08-09T17:06:11+07:00</time>
        </trkpt>
        <trkpt lat="-2.19437443333333" lon="102.3864445">
            <ele>86.904</ele>
            <time>2024-08-09T17:06:13+07:00</time>
        </trkpt>
        <trkpt lat="-2.1940996" lon="102.386616133333">
            <ele>89.092</ele>
            <time>2024-08-09T17:06:15+07:00</time>
        </trkpt>
        <trkpt lat="-2.19388165" lon="102.386820316667">
            <ele>85.941</ele>
            <time>2024-08-09T17:06:17+07:00</time>
        </trkpt>
        <trkpt lat="-2.19364548333333" lon="102.386963316667">
            <ele>85.371</ele>
            <time>2024-08-09T17:06:19+07:00</time>
        </trkpt>
        <trkpt lat="-2.19343383333333" lon="102.387169983333">
            <ele>87.894</ele>
            <time>2024-08-09T17:06:21+07:00</time>
        </trkpt>
        <trkpt lat="-2.19320066666667" lon="102.387360583333">
            <ele>94.556</ele>
            <time>2024-08-09T17:06:23+07:00</time>
        </trkpt>
        <trkpt lat="-2.19293268333333" lon="102.387521216667">
            <ele>105.898</ele>
            <time>2024-08-09T17:06:25+07:00</time>
        </trkpt>
        <trkpt lat="-2.19267888333333" lon="102.38773015">
            <ele>106.767</ele>
            <time>2024-08-09T17:06:27+07:00</time>
        </trkpt>
        <trkpt lat="-2.19242396666667" lon="102.3879456">
            <ele>106.914</ele>
            <time>2024-08-09T17:06:29+07:00</time>
        </trkpt>
        <trkpt lat="-2.19217516666667" lon="102.388143416667">
            <ele>103.977</ele>
            <time>2024-08-09T17:06:31+07:00</time>
        </trkpt>
        <trkpt lat="-2.19193555" lon="102.3883282">
            <ele>107.172</ele>
            <time>2024-08-09T17:06:33+07:00</time>
        </trkpt>
        <trkpt lat="-2.19169323333333" lon="102.388507133333">
            <ele>109.176</ele>
            <time>2024-08-09T17:06:35+07:00</time>
        </trkpt>
        <trkpt lat="-2.19147196666667" lon="102.388672133333">
            <ele>103.708</ele>
            <time>2024-08-09T17:06:37+07:00</time>
        </trkpt>
        <trkpt lat="-2.19121515" lon="102.388808733333">
            <ele>101.281</ele>
            <time>2024-08-09T17:06:39+07:00</time>
        </trkpt>
        <trkpt lat="-2.1909963" lon="102.388935716667">
            <ele>98.054</ele>
            <time>2024-08-09T17:06:41+07:00</time>
        </trkpt>
        <trkpt lat="-2.19078775" lon="102.3891278">
            <ele>97.71</ele>
            <time>2024-08-09T17:06:43+07:00</time>
        </trkpt>
        <trkpt lat="-2.19058751666667" lon="102.389310133333">
            <ele>99.085</ele>
            <time>2024-08-09T17:06:45+07:00</time>
        </trkpt>
        <trkpt lat="-2.19034851666667" lon="102.389532416667">
            <ele>91.206</ele>
            <time>2024-08-09T17:06:47+07:00</time>
        </trkpt>
        <trkpt lat="-2.19010991666667" lon="102.38975795">
            <ele>87.553</ele>
            <time>2024-08-09T17:06:49+07:00</time>
        </trkpt>
        <trkpt lat="-2.18988358333333" lon="102.389990416667">
            <ele>84.32</ele>
            <time>2024-08-09T17:06:51+07:00</time>
        </trkpt>
        <trkpt lat="-2.18967621666667" lon="102.39022325">
            <ele>84.675</ele>
            <time>2024-08-09T17:06:53+07:00</time>
        </trkpt>
        <trkpt lat="-2.18952198333333" lon="102.390367366667">
            <ele>86.393</ele>
            <time>2024-08-09T17:06:55+07:00</time>
        </trkpt>
        <trkpt lat="-2.18935393333333" lon="102.390540383333">
            <ele>83.148</ele>
            <time>2024-08-09T17:06:57+07:00</time>
        </trkpt>
        <trkpt lat="-2.1891979" lon="102.3907168">
            <ele>91.169</ele>
            <time>2024-08-09T17:06:59+07:00</time>
        </trkpt>
        <trkpt lat="-2.18902806666667" lon="102.3908921">
            <ele>99.13</ele>
            <time>2024-08-09T17:07:01+07:00</time>
        </trkpt>
        <trkpt lat="-2.18885603333333" lon="102.39107455">
            <ele>98.209</ele>
            <time>2024-08-09T17:07:03+07:00</time>
        </trkpt>
        <trkpt lat="-2.1886736" lon="102.391263083333">
            <ele>100.473</ele>
            <time>2024-08-09T17:07:05+07:00</time>
        </trkpt>
        <trkpt lat="-2.1884806" lon="102.391449466667">
            <ele>100.729</ele>
            <time>2024-08-09T17:07:07+07:00</time>
        </trkpt>
        <trkpt lat="-2.18828883333333" lon="102.391635233333">
            <ele>96.844</ele>
            <time>2024-08-09T17:07:09+07:00</time>
        </trkpt>
        <trkpt lat="-2.18808746666667" lon="102.391820133333">
            <ele>88.804</ele>
            <time>2024-08-09T17:07:11+07:00</time>
        </trkpt>
        <trkpt lat="-2.18784226666667" lon="102.392020583333">
            <ele>83.105</ele>
            <time>2024-08-09T17:07:13+07:00</time>
        </trkpt>
        <trkpt lat="-2.18754063333333" lon="102.392222533333">
            <ele>78.45</ele>
            <time>2024-08-09T17:07:15+07:00</time>
        </trkpt>
        <trkpt lat="-2.18727196666667" lon="102.39236145">
            <ele>77.021</ele>
            <time>2024-08-09T17:07:17+07:00</time>
        </trkpt>
        <trkpt lat="-2.18696406666667" lon="102.392526483333">
            <ele>81.313</ele>
            <time>2024-08-09T17:07:19+07:00</time>
        </trkpt>
        <trkpt lat="-2.18666556666667" lon="102.3927003">
            <ele>87.915</ele>
            <time>2024-08-09T17:07:21+07:00</time>
        </trkpt>
        <trkpt lat="-2.18639261666667" lon="102.3928638">
            <ele>87.982</ele>
            <time>2024-08-09T17:07:23+07:00</time>
        </trkpt>
        <trkpt lat="-2.18615621666667" lon="102.393002516667">
            <ele>84.124</ele>
            <time>2024-08-09T17:07:25+07:00</time>
        </trkpt>
        <trkpt lat="-2.18594065" lon="102.393170983333">
            <ele>86.891</ele>
            <time>2024-08-09T17:07:27+07:00</time>
        </trkpt>
        <trkpt lat="-2.18568211666667" lon="102.39333455">
            <ele>91.091</ele>
            <time>2024-08-09T17:07:29+07:00</time>
        </trkpt>
        <trkpt lat="-2.18542235" lon="102.393417833333">
            <ele>97.84</ele>
            <time>2024-08-09T17:07:31+07:00</time>
        </trkpt>
        <trkpt lat="-2.18521463333333" lon="102.393535333333">
            <ele>102.903</ele>
            <time>2024-08-09T17:07:33+07:00</time>
        </trkpt>
        <trkpt lat="-2.18497266666667" lon="102.393697583333">
            <ele>101.292</ele>
            <time>2024-08-09T17:07:35+07:00</time>
        </trkpt>
        <trkpt lat="-2.18472415" lon="102.393849133333">
            <ele>105.608</ele>
            <time>2024-08-09T17:07:37+07:00</time>
        </trkpt>
        <trkpt lat="-2.18450813333333" lon="102.39398855">
            <ele>105.363</ele>
            <time>2024-08-09T17:07:39+07:00</time>
        </trkpt>
        <trkpt lat="-2.18423188333333" lon="102.394150083333">
            <ele>108.738</ele>
            <time>2024-08-09T17:07:41+07:00</time>
        </trkpt>
        <trkpt lat="-2.18395341666667" lon="102.39431095">
            <ele>107.226</ele>
            <time>2024-08-09T17:07:43+07:00</time>
        </trkpt>
        <trkpt lat="-2.18374373333333" lon="102.394434633333">
            <ele>104.381</ele>
            <time>2024-08-09T17:07:45+07:00</time>
        </trkpt>
        <trkpt lat="-2.1835456" lon="102.394560633333">
            <ele>105.402</ele>
            <time>2024-08-09T17:07:47+07:00</time>
        </trkpt>
        <trkpt lat="-2.1833479" lon="102.394675283333">
            <ele>101.104</ele>
            <time>2024-08-09T17:07:49+07:00</time>
        </trkpt>
        <trkpt lat="-2.18313058333333" lon="102.394795816667">
            <ele>96.894</ele>
            <time>2024-08-09T17:07:51+07:00</time>
        </trkpt>
        <trkpt lat="-2.1829418" lon="102.395007466667">
            <ele>93.945</ele>
            <time>2024-08-09T17:07:53+07:00</time>
        </trkpt>
        <trkpt lat="-2.18275366666667" lon="102.3952199">
            <ele>91.666</ele>
            <time>2024-08-09T17:07:55+07:00</time>
        </trkpt>
        <trkpt lat="-2.18254858333333" lon="102.395438933333">
            <ele>93.562</ele>
            <time>2024-08-09T17:07:57+07:00</time>
        </trkpt>
        <trkpt lat="-2.18235615" lon="102.395665133333">
            <ele>92.931</ele>
            <time>2024-08-09T17:07:59+07:00</time>
        </trkpt>
        <trkpt lat="-2.18217448333333" lon="102.395901833333">
            <ele>87.547</ele>
            <time>2024-08-09T17:08:01+07:00</time>
        </trkpt>
        <trkpt lat="-2.18198495" lon="102.396113483333">
            <ele>82.439</ele>
            <time>2024-08-09T17:08:03+07:00</time>
        </trkpt>
        <trkpt lat="-2.18178491666667" lon="102.396352783333">
            <ele>78.18</ele>
            <time>2024-08-09T17:08:05+07:00</time>
        </trkpt>
        <trkpt lat="-2.18159783333333" lon="102.39661655">
            <ele>76.652</ele>
            <time>2024-08-09T17:08:07+07:00</time>
        </trkpt>
        <trkpt lat="-2.18140546666667" lon="102.396887666667">
            <ele>71.797</ele>
            <time>2024-08-09T17:08:09+07:00</time>
        </trkpt>
        <trkpt lat="-2.18127248333333" lon="102.397183183333">
            <ele>68.637</ele>
            <time>2024-08-09T17:08:11+07:00</time>
        </trkpt>
        <trkpt lat="-2.18115991666667" lon="102.397472116667">
            <ele>68.837</ele>
            <time>2024-08-09T17:08:13+07:00</time>
        </trkpt>
        <trkpt lat="-2.1810585" lon="102.397751816667">
            <ele>70.322</ele>
            <time>2024-08-09T17:08:15+07:00</time>
        </trkpt>
        <trkpt lat="-2.18093385" lon="102.39804135">
            <ele>74.884</ele>
            <time>2024-08-09T17:08:17+07:00</time>
        </trkpt>
        <trkpt lat="-2.1808175" lon="102.3983233">
            <ele>74.419</ele>
            <time>2024-08-09T17:08:19+07:00</time>
        </trkpt>
        <trkpt lat="-2.18068261666667" lon="102.398645783333">
            <ele>81.67</ele>
            <time>2024-08-09T17:08:21+07:00</time>
        </trkpt>
        <trkpt lat="-2.18052131666667" lon="102.39894665">
            <ele>90.181</ele>
            <time>2024-08-09T17:08:23+07:00</time>
        </trkpt>
        <trkpt lat="-2.18035393333333" lon="102.399237883333">
            <ele>99.193</ele>
            <time>2024-08-09T17:08:25+07:00</time>
        </trkpt>
        <trkpt lat="-2.1802633" lon="102.399499733333">
            <ele>104.005</ele>
            <time>2024-08-09T17:08:27+07:00</time>
        </trkpt>
        <trkpt lat="-2.18017988333333" lon="102.399730733333">
            <ele>98.734</ele>
            <time>2024-08-09T17:08:29+07:00</time>
        </trkpt>
        <trkpt lat="-2.18006495" lon="102.3999941">
            <ele>94.159</ele>
            <time>2024-08-09T17:08:31+07:00</time>
        </trkpt>
        <trkpt lat="-2.17994875" lon="102.400284366667">
            <ele>90.322</ele>
            <time>2024-08-09T17:08:33+07:00</time>
        </trkpt>
        <trkpt lat="-2.17981591666667" lon="102.400544483333">
            <ele>91.859</ele>
            <time>2024-08-09T17:08:35+07:00</time>
        </trkpt>
        <trkpt lat="-2.17972193333333" lon="102.400733283333">
            <ele>88.526</ele>
            <time>2024-08-09T17:08:37+07:00</time>
        </trkpt>
        <trkpt lat="-2.17957726666667" lon="102.40085125">
            <ele>90.824</ele>
            <time>2024-08-09T17:08:39+07:00</time>
        </trkpt>
        <trkpt lat="-2.17941946666667" lon="102.400837">
            <ele>92.044</ele>
            <time>2024-08-09T17:08:41+07:00</time>
        </trkpt>
        <trkpt lat="-2.17921993333333" lon="102.400833483333">
            <ele>92.302</ele>
            <time>2024-08-09T17:08:43+07:00</time>
        </trkpt>
        <trkpt lat="-2.1790037" lon="102.400832583333">
            <ele>92.745</ele>
            <time>2024-08-09T17:08:45+07:00</time>
        </trkpt>
        <trkpt lat="-2.178765" lon="102.400834916667">
            <ele>93.715</ele>
            <time>2024-08-09T17:08:47+07:00</time>
        </trkpt>
        <trkpt lat="-2.17855576666667" lon="102.40084715">
            <ele>94.369</ele>
            <time>2024-08-09T17:08:49+07:00</time>
        </trkpt>
        <trkpt lat="-2.17839726666667" lon="102.400905466667">
            <ele>91.728</ele>
            <time>2024-08-09T17:08:51+07:00</time>
        </trkpt>
        <trkpt lat="-2.17825028333333" lon="102.40102595">
            <ele>93.622</ele>
            <time>2024-08-09T17:08:53+07:00</time>
        </trkpt>
        <trkpt lat="-2.17810875" lon="102.401174716667">
            <ele>93.211</ele>
            <time>2024-08-09T17:08:55+07:00</time>
        </trkpt>
        <trkpt lat="-2.17800358333333" lon="102.4012974">
            <ele>93.952</ele>
            <time>2024-08-09T17:08:57+07:00</time>
        </trkpt>
        <trkpt lat="-2.17794165" lon="102.4014654">
            <ele>89.941</ele>
            <time>2024-08-09T17:08:59+07:00</time>
        </trkpt>
        <trkpt lat="-2.17794268333333" lon="102.4017015">
            <ele>90.584</ele>
            <time>2024-08-09T17:09:01+07:00</time>
        </trkpt>
        <trkpt lat="-2.17797426666667" lon="102.401991466667">
            <ele>89.756</ele>
            <time>2024-08-09T17:09:03+07:00</time>
        </trkpt>
        <trkpt lat="-2.17798588333333" lon="102.402331666667">
            <ele>87.558</ele>
            <time>2024-08-09T17:09:05+07:00</time>
        </trkpt>
        <trkpt lat="-2.17800818333333" lon="102.40263075">
            <ele>87.984</ele>
            <time>2024-08-09T17:09:07+07:00</time>
        </trkpt>
        <trkpt lat="-2.1780226" lon="102.402936283333">
            <ele>85.081</ele>
            <time>2024-08-09T17:09:09+07:00</time>
        </trkpt>
        <trkpt lat="-2.17801908333333" lon="102.403260283333">
            <ele>86.712</ele>
            <time>2024-08-09T17:09:11+07:00</time>
        </trkpt>
        <trkpt lat="-2.1780308" lon="102.4035617">
            <ele>88.703</ele>
            <time>2024-08-09T17:09:13+07:00</time>
        </trkpt>
        <trkpt lat="-2.1780331" lon="102.403852666667">
            <ele>87.976</ele>
            <time>2024-08-09T17:09:15+07:00</time>
        </trkpt>
        <trkpt lat="-2.17805166666667" lon="102.404189316667">
            <ele>90.807</ele>
            <time>2024-08-09T17:09:17+07:00</time>
        </trkpt>
        <trkpt lat="-2.1780556" lon="102.4045364">
            <ele>93.545</ele>
            <time>2024-08-09T17:09:19+07:00</time>
        </trkpt>
        <trkpt lat="-2.17806175" lon="102.404886933333">
            <ele>97.432</ele>
            <time>2024-08-09T17:09:21+07:00</time>
        </trkpt>
        <trkpt lat="-2.17806533333333" lon="102.40519535">
            <ele>98.2</ele>
            <time>2024-08-09T17:09:23+07:00</time>
        </trkpt>
        <trkpt lat="-2.17806803333333" lon="102.405483066667">
            <ele>96.298</ele>
            <time>2024-08-09T17:09:25+07:00</time>
        </trkpt>
        <trkpt lat="-2.17805736666667" lon="102.40575835">
            <ele>98.352</ele>
            <time>2024-08-09T17:09:27+07:00</time>
        </trkpt>
        <trkpt lat="-2.1780604" lon="102.40603375">
            <ele>97.854</ele>
            <time>2024-08-09T17:09:29+07:00</time>
        </trkpt>
        <trkpt lat="-2.1780621" lon="102.4063113">
            <ele>97.25</ele>
            <time>2024-08-09T17:09:31+07:00</time>
        </trkpt>
        <trkpt lat="-2.1780516" lon="102.406603683333">
            <ele>96.485</ele>
            <time>2024-08-09T17:09:33+07:00</time>
        </trkpt>
        <trkpt lat="-2.1780139" lon="102.406925616667">
            <ele>93.582</ele>
            <time>2024-08-09T17:09:35+07:00</time>
        </trkpt>
        <trkpt lat="-2.17800116666667" lon="102.407259016667">
            <ele>96.859</ele>
            <time>2024-08-09T17:09:37+07:00</time>
        </trkpt>
        <trkpt lat="-2.17799213333333" lon="102.40757795">
            <ele>98.397</ele>
            <time>2024-08-09T17:09:39+07:00</time>
        </trkpt>
        <trkpt lat="-2.17799695" lon="102.407876716667">
            <ele>98.187</ele>
            <time>2024-08-09T17:09:41+07:00</time>
        </trkpt>
        <trkpt lat="-2.17799216666667" lon="102.408182483333">
            <ele>99.88</ele>
            <time>2024-08-09T17:09:43+07:00</time>
        </trkpt>
        <trkpt lat="-2.17798368333333" lon="102.408486266667">
            <ele>103.319</ele>
            <time>2024-08-09T17:09:45+07:00</time>
        </trkpt>
        <trkpt lat="-2.17798863333333" lon="102.408773233333">
            <ele>102.881</ele>
            <time>2024-08-09T17:09:47+07:00</time>
        </trkpt>
        <trkpt lat="-2.17799463333333" lon="102.409058883333">
            <ele>107.215</ele>
            <time>2024-08-09T17:09:49+07:00</time>
        </trkpt>
        <trkpt lat="-2.17799823333333" lon="102.409355616667">
            <ele>100.325</ele>
            <time>2024-08-09T17:09:51+07:00</time>
        </trkpt>
        <trkpt lat="-2.17796546666667" lon="102.4096918">
            <ele>93.823</ele>
            <time>2024-08-09T17:09:53+07:00</time>
        </trkpt>
        <trkpt lat="-2.17795828333333" lon="102.4100074">
            <ele>88.439</ele>
            <time>2024-08-09T17:09:55+07:00</time>
        </trkpt>
        <trkpt lat="-2.17792781666667" lon="102.41033525">
            <ele>85.254</ele>
            <time>2024-08-09T17:09:57+07:00</time>
        </trkpt>
        <trkpt lat="-2.17792608333333" lon="102.41066035">
            <ele>82.722</ele>
            <time>2024-08-09T17:09:59+07:00</time>
        </trkpt>
        <trkpt lat="-2.17790725" lon="102.410976566667">
            <ele>82.08</ele>
            <time>2024-08-09T17:10:01+07:00</time>
        </trkpt>
        <trkpt lat="-2.17791455" lon="102.411314216667">
            <ele>86.227</ele>
            <time>2024-08-09T17:10:03+07:00</time>
        </trkpt>
        <trkpt lat="-2.17791818333333" lon="102.411603533333">
            <ele>86.039</ele>
            <time>2024-08-09T17:10:05+07:00</time>
        </trkpt>
        <trkpt lat="-2.17792333333333" lon="102.41188665">
            <ele>81.624</ele>
            <time>2024-08-09T17:10:07+07:00</time>
        </trkpt>
        <trkpt lat="-2.17798228333333" lon="102.41223245">
            <ele>79.609</ele>
            <time>2024-08-09T17:10:09+07:00</time>
        </trkpt>
        <trkpt lat="-2.17800236666667" lon="102.4125862">
            <ele>79.625</ele>
            <time>2024-08-09T17:10:11+07:00</time>
        </trkpt>
        <trkpt lat="-2.17801398333333" lon="102.412932083333">
            <ele>79.534</ele>
            <time>2024-08-09T17:10:13+07:00</time>
        </trkpt>
        <trkpt lat="-2.17803358333333" lon="102.413272816667">
            <ele>78.713</ele>
            <time>2024-08-09T17:10:15+07:00</time>
        </trkpt>
        <trkpt lat="-2.1780331" lon="102.4136254">
            <ele>77.843</ele>
            <time>2024-08-09T17:10:17+07:00</time>
        </trkpt>
        <trkpt lat="-2.17804505" lon="102.41397595">
            <ele>82.004</ele>
            <time>2024-08-09T17:10:19+07:00</time>
        </trkpt>
        <trkpt lat="-2.17804366666667" lon="102.414320916667">
            <ele>85.117</ele>
            <time>2024-08-09T17:10:21+07:00</time>
        </trkpt>
        <trkpt lat="-2.17803588333333" lon="102.41461215">
            <ele>87.415</ele>
            <time>2024-08-09T17:10:23+07:00</time>
        </trkpt>
        <trkpt lat="-2.17803775" lon="102.4148124">
            <ele>90.811</ele>
            <time>2024-08-09T17:10:25+07:00</time>
        </trkpt>
        <trkpt lat="-2.17801998333333" lon="102.41494355">
            <ele>85.871</ele>
            <time>2024-08-09T17:10:27+07:00</time>
        </trkpt>
        <trkpt lat="-2.17801655" lon="102.415134866667">
            <ele>81.548</ele>
            <time>2024-08-09T17:10:29+07:00</time>
        </trkpt>
        <trkpt lat="-2.17800883333333" lon="102.415426633333">
            <ele>85.053</ele>
            <time>2024-08-09T18:20:30+07:00</time>
        </trkpt>
        <trkpt lat="-2.17800333333333" lon="102.415462466667">
            <ele>83.848</ele>
            <time>2024-08-09T18:20:32+07:00</time>
        </trkpt>
        <trkpt lat="-2.1780039" lon="102.415545983333">
            <ele>83.984</ele>
            <time>2024-08-09T18:20:34+07:00</time>
        </trkpt>
        <trkpt lat="-2.17803036666667" lon="102.415708466667">
            <ele>79.09</ele>
            <time>2024-08-09T18:20:36+07:00</time>
        </trkpt>
        <trkpt lat="-2.17803163333333" lon="102.415816983333">
            <ele>75.236</ele>
            <time>2024-08-09T18:20:38+07:00</time>
        </trkpt>
        <trkpt lat="-2.17800521666667" lon="102.41592515">
            <ele>73.327</ele>
            <time>2024-08-09T18:20:40+07:00</time>
        </trkpt>
        <trkpt lat="-2.1779586" lon="102.416029433333">
            <ele>71.642</ele>
            <time>2024-08-09T18:20:42+07:00</time>
        </trkpt>
        <trkpt lat="-2.17788353333333" lon="102.41613325">
            <ele>69.725</ele>
            <time>2024-08-09T18:20:44+07:00</time>
        </trkpt>
        <trkpt lat="-2.17777715" lon="102.41620715">
            <ele>69.715</ele>
            <time>2024-08-09T18:20:46+07:00</time>
        </trkpt>
        <trkpt lat="-2.1776575" lon="102.4162607">
            <ele>72.539</ele>
            <time>2024-08-09T18:20:48+07:00</time>
        </trkpt>
        <trkpt lat="-2.17752673333333" lon="102.416288166667">
            <ele>69.694</ele>
            <time>2024-08-09T18:20:50+07:00</time>
        </trkpt>
        <trkpt lat="-2.17738931666667" lon="102.416305916667">
            <ele>71.281</ele>
            <time>2024-08-09T18:20:52+07:00</time>
        </trkpt>
        <trkpt lat="-2.1772864" lon="102.4162982">
            <ele>71.722</ele>
            <time>2024-08-09T18:20:54+07:00</time>
        </trkpt>
        <trkpt lat="-2.17717573333333" lon="102.416310766667">
            <ele>72.087</ele>
            <time>2024-08-09T18:20:56+07:00</time>
        </trkpt>
        <trkpt lat="-2.17704856666667" lon="102.416327683333">
            <ele>72.667</ele>
            <time>2024-08-09T18:20:58+07:00</time>
        </trkpt>
        <trkpt lat="-2.17691253333333" lon="102.41633415">
            <ele>78.002</ele>
            <time>2024-08-09T18:21:00+07:00</time>
        </trkpt>
        <trkpt lat="-2.17678208333333" lon="102.416324183333">
            <ele>81.712</ele>
            <time>2024-08-09T18:21:02+07:00</time>
        </trkpt>
        <trkpt lat="-2.17664758333333" lon="102.41631725">
            <ele>83.53</ele>
            <time>2024-08-09T18:21:04+07:00</time>
        </trkpt>
        <trkpt lat="-2.17650573333333" lon="102.416298616667">
            <ele>84.148</ele>
            <time>2024-08-09T18:21:06+07:00</time>
        </trkpt>
        <trkpt lat="-2.17637006666667" lon="102.416289766667">
            <ele>84.398</ele>
            <time>2024-08-09T18:21:08+07:00</time>
        </trkpt>
        <trkpt lat="-2.17623571666667" lon="102.416291516667">
            <ele>85.849</ele>
            <time>2024-08-09T18:21:10+07:00</time>
        </trkpt>
        <trkpt lat="-2.17611343333333" lon="102.416296683333">
            <ele>85.13</ele>
            <time>2024-08-09T18:21:12+07:00</time>
        </trkpt>
        <trkpt lat="-2.17599026666667" lon="102.41628045">
            <ele>84.427</ele>
            <time>2024-08-09T18:21:14+07:00</time>
        </trkpt>
        <trkpt lat="-2.17586216666667" lon="102.416271583333">
            <ele>83.658</ele>
            <time>2024-08-09T18:21:16+07:00</time>
        </trkpt>
        <trkpt lat="-2.17572741666667" lon="102.41627695">
            <ele>83.24</ele>
            <time>2024-08-09T18:21:18+07:00</time>
        </trkpt>
        <trkpt lat="-2.17559008333333" lon="102.416274183333">
            <ele>83.843</ele>
            <time>2024-08-09T18:21:20+07:00</time>
        </trkpt>
        <trkpt lat="-2.17544121666667" lon="102.416276566667">
            <ele>84.912</ele>
            <time>2024-08-09T18:21:22+07:00</time>
        </trkpt>
        <trkpt lat="-2.17526686666667" lon="102.4162669">
            <ele>92.387</ele>
            <time>2024-08-09T18:21:24+07:00</time>
        </trkpt>
        <trkpt lat="-2.17511048333333" lon="102.416257883333">
            <ele>91.056</ele>
            <time>2024-08-09T18:21:26+07:00</time>
        </trkpt>
        <trkpt lat="-2.17495508333333" lon="102.416269933333">
            <ele>85.97</ele>
            <time>2024-08-09T18:21:28+07:00</time>
        </trkpt>
        <trkpt lat="-2.17476255" lon="102.416287433333">
            <ele>81.934</ele>
            <time>2024-08-09T18:21:30+07:00</time>
        </trkpt>
        <trkpt lat="-2.17455561666667" lon="102.416287166667">
            <ele>81.58</ele>
            <time>2024-08-09T18:21:32+07:00</time>
        </trkpt>
        <trkpt lat="-2.17434006666667" lon="102.41625525">
            <ele>80.172</ele>
            <time>2024-08-09T18:21:34+07:00</time>
        </trkpt>
        <trkpt lat="-2.17411021666667" lon="102.416222616667">
            <ele>79.609</ele>
            <time>2024-08-09T18:21:36+07:00</time>
        </trkpt>
        <trkpt lat="-2.17389325" lon="102.4162229">
            <ele>75.006</ele>
            <time>2024-08-09T18:21:38+07:00</time>
        </trkpt>
        <trkpt lat="-2.17365616666667" lon="102.416198166667">
            <ele>74.456</ele>
            <time>2024-08-09T18:21:40+07:00</time>
        </trkpt>
        <trkpt lat="-2.17340825" lon="102.416170466667">
            <ele>77.625</ele>
            <time>2024-08-09T18:21:42+07:00</time>
        </trkpt>
        <trkpt lat="-2.17318631666667" lon="102.416122616667">
            <ele>81.11</ele>
            <time>2024-08-09T18:21:44+07:00</time>
        </trkpt>
        <trkpt lat="-2.17296808333333" lon="102.416053716667">
            <ele>88.831</ele>
            <time>2024-08-09T18:21:46+07:00</time>
        </trkpt>
        <trkpt lat="-2.17274108333333" lon="102.416017266667">
            <ele>91.435</ele>
            <time>2024-08-09T18:21:48+07:00</time>
        </trkpt>
        <trkpt lat="-2.17253178333333" lon="102.4159865">
            <ele>92.117</ele>
            <time>2024-08-09T18:21:50+07:00</time>
        </trkpt>
        <trkpt lat="-2.17232125" lon="102.41596865">
            <ele>92.665</ele>
            <time>2024-08-09T18:21:52+07:00</time>
        </trkpt>
        <trkpt lat="-2.17212605" lon="102.415939816667">
            <ele>97.227</ele>
            <time>2024-08-09T18:21:54+07:00</time>
        </trkpt>
        <trkpt lat="-2.17192213333333" lon="102.415914916667">
            <ele>98.287</ele>
            <time>2024-08-09T18:21:56+07:00</time>
        </trkpt>
        <trkpt lat="-2.17171073333333" lon="102.415887333333">
            <ele>99.501</ele>
            <time>2024-08-09T18:21:58+07:00</time>
        </trkpt>
        <trkpt lat="-2.17150006666667" lon="102.415865983333">
            <ele>100.388</ele>
            <time>2024-08-09T18:22:00+07:00</time>
        </trkpt>
        <trkpt lat="-2.17129593333333" lon="102.4158322">
            <ele>99.118</ele>
            <time>2024-08-09T18:22:02+07:00</time>
        </trkpt>
        <trkpt lat="-2.17111566666667" lon="102.415831716667">
            <ele>98.712</ele>
            <time>2024-08-09T18:22:04+07:00</time>
        </trkpt>
        <trkpt lat="-2.17093148333333" lon="102.415829916667">
            <ele>97.346</ele>
            <time>2024-08-09T18:22:06+07:00</time>
        </trkpt>
        <trkpt lat="-2.1707382" lon="102.4158116">
            <ele>96.641</ele>
            <time>2024-08-09T18:22:08+07:00</time>
        </trkpt>
        <trkpt lat="-2.17053788333333" lon="102.415794583333">
            <ele>95.98</ele>
            <time>2024-08-09T18:22:10+07:00</time>
        </trkpt>
        <trkpt lat="-2.1703311" lon="102.415769183333">
            <ele>93.853</ele>
            <time>2024-08-09T18:22:12+07:00</time>
        </trkpt>
        <trkpt lat="-2.17011318333333" lon="102.415749283333">
            <ele>92.384</ele>
            <time>2024-08-09T18:22:14+07:00</time>
        </trkpt>
        <trkpt lat="-2.16987688333333" lon="102.41571965">
            <ele>90.378</ele>
            <time>2024-08-09T18:22:16+07:00</time>
        </trkpt>
        <trkpt lat="-2.16962526666667" lon="102.41570315">
            <ele>89.396</ele>
            <time>2024-08-09T18:22:18+07:00</time>
        </trkpt>
        <trkpt lat="-2.16936316666667" lon="102.41568485">
            <ele>93.008</ele>
            <time>2024-08-09T18:22:20+07:00</time>
        </trkpt>
        <trkpt lat="-2.16915171666667" lon="102.415688416667">
            <ele>93.037</ele>
            <time>2024-08-09T18:22:22+07:00</time>
        </trkpt>
        <trkpt lat="-2.16893723333333" lon="102.415737216667">
            <ele>94.679</ele>
            <time>2024-08-09T18:22:24+07:00</time>
        </trkpt>
        <trkpt lat="-2.16871273333333" lon="102.415745116667">
            <ele>97.129</ele>
            <time>2024-08-09T18:22:26+07:00</time>
        </trkpt>
        <trkpt lat="-2.16855803333333" lon="102.41577195">
            <ele>89.772</ele>
            <time>2024-08-09T18:22:28+07:00</time>
        </trkpt>
        <trkpt lat="-2.16841646666667" lon="102.415923866667">
            <ele>87.985</ele>
            <time>2024-08-09T18:22:30+07:00</time>
        </trkpt>
        <trkpt lat="-2.16827795" lon="102.416100416667">
            <ele>88.093</ele>
            <time>2024-08-09T18:22:32+07:00</time>
        </trkpt>
        <trkpt lat="-2.16814086666667" lon="102.4162872">
            <ele>88.335</ele>
            <time>2024-08-09T18:22:34+07:00</time>
        </trkpt>
        <trkpt lat="-2.16797663333333" lon="102.416463983333">
            <ele>86.474</ele>
            <time>2024-08-09T18:22:36+07:00</time>
        </trkpt>
        <trkpt lat="-2.1677947" lon="102.41664175">
            <ele>84.354</ele>
            <time>2024-08-09T18:22:38+07:00</time>
        </trkpt>
        <trkpt lat="-2.16762813333333" lon="102.416833966667">
            <ele>83.877</ele>
            <time>2024-08-09T18:22:40+07:00</time>
        </trkpt>
        <trkpt lat="-2.1674508" lon="102.417044116667">
            <ele>83.91</ele>
            <time>2024-08-09T18:22:42+07:00</time>
        </trkpt>
        <trkpt lat="-2.1672544" lon="102.417286833333">
            <ele>83.038</ele>
            <time>2024-08-09T18:22:44+07:00</time>
        </trkpt>
        <trkpt lat="-2.16710611666667" lon="102.4174624">
            <ele>79.717</ele>
            <time>2024-08-09T18:22:46+07:00</time>
        </trkpt>
        <trkpt lat="-2.16693908333333" lon="102.41760615">
            <ele>78.997</ele>
            <time>2024-08-09T18:22:48+07:00</time>
        </trkpt>
        <trkpt lat="-2.16672696666667" lon="102.417631816667">
            <ele>82.828</ele>
            <time>2024-08-09T18:22:50+07:00</time>
        </trkpt>
        <trkpt lat="-2.16650538333333" lon="102.41768025">
            <ele>82.405</ele>
            <time>2024-08-09T18:22:52+07:00</time>
        </trkpt>
        <trkpt lat="-2.16629015" lon="102.4176977">
            <ele>81.761</ele>
            <time>2024-08-09T18:22:54+07:00</time>
        </trkpt>
        <trkpt lat="-2.16607151666667" lon="102.417731383333">
            <ele>80.66</ele>
            <time>2024-08-09T18:22:56+07:00</time>
        </trkpt>
        <trkpt lat="-2.16583308333333" lon="102.41777335">
            <ele>82.028</ele>
            <time>2024-08-09T18:22:58+07:00</time>
        </trkpt>
        <trkpt lat="-2.16560341666667" lon="102.417815116667">
            <ele>81.107</ele>
            <time>2024-08-09T18:23:00+07:00</time>
        </trkpt>
        <trkpt lat="-2.16535913333333" lon="102.417870433333">
            <ele>80.431</ele>
            <time>2024-08-09T18:23:02+07:00</time>
        </trkpt>
        <trkpt lat="-2.16509825" lon="102.417936">
            <ele>77.869</ele>
            <time>2024-08-09T18:23:04+07:00</time>
        </trkpt>
        <trkpt lat="-2.16482215" lon="102.41799425">
            <ele>72.599</ele>
            <time>2024-08-09T18:23:06+07:00</time>
        </trkpt>
        <trkpt lat="-2.16456391666667" lon="102.418054433333">
            <ele>68.437</ele>
            <time>2024-08-09T18:23:08+07:00</time>
        </trkpt>
        <trkpt lat="-2.16428248333333" lon="102.41807385">
            <ele>65.887</ele>
            <time>2024-08-09T18:23:10+07:00</time>
        </trkpt>
        <trkpt lat="-2.16401946666667" lon="102.4181051">
            <ele>67.245</ele>
            <time>2024-08-09T18:23:12+07:00</time>
        </trkpt>
        <trkpt lat="-2.16374181666667" lon="102.418099">
            <ele>69.276</ele>
            <time>2024-08-09T18:23:14+07:00</time>
        </trkpt>
        <trkpt lat="-2.16351721666667" lon="102.41812915">
            <ele>68.691</ele>
            <time>2024-08-09T18:23:16+07:00</time>
        </trkpt>
        <trkpt lat="-2.16331403333333" lon="102.41814215">
            <ele>67.699</ele>
            <time>2024-08-09T18:23:18+07:00</time>
        </trkpt>
        <trkpt lat="-2.1630952" lon="102.41815555">
            <ele>64.115</ele>
            <time>2024-08-09T18:23:20+07:00</time>
        </trkpt>
        <trkpt lat="-2.1628707" lon="102.418156483333">
            <ele>65.25</ele>
            <time>2024-08-09T18:23:22+07:00</time>
        </trkpt>
        <trkpt lat="-2.16268235" lon="102.418161633333">
            <ele>67.651</ele>
            <time>2024-08-09T18:23:24+07:00</time>
        </trkpt>
        <trkpt lat="-2.16254366666667" lon="102.418147233333">
            <ele>67.081</ele>
            <time>2024-08-09T18:23:26+07:00</time>
        </trkpt>
        <trkpt lat="-2.16246031666667" lon="102.418127166667">
            <ele>69.278</ele>
            <time>2024-08-09T18:23:28+07:00</time>
        </trkpt>
    </trkseg>
</trk>
</gpx>
