<?xml version="1.0" encoding="UTF-8"?>
<gpx xmlns="http://www.topografix.com/GPX/1/1" xmlns:xsi="http://www.w3.org/2001/XMLSchema-instance" xsi:schemaLocation="http://www.topografix.com/GPX/1/1 http://www.topografix.com/GPX/1/1/gpx.xsd" version="1.1" creator="GPX Editor 1.8.0.1760">
  <trk>
    <name>250 Jalan Simpang</name>
    <desc>Description:</desc>
    <trkseg>
      <trkpt lat="-2.54746013333333" lon="102.040221783333">
        <ele>735.074</ele>
        <time>2024-07-25T18:41:52Z</time>
      </trkpt>
      <trkpt lat="-2.54744056666667" lon="102.040199883333">
        <ele>734.151</ele>
        <time>2024-07-25T18:41:54Z</time>
      </trkpt>
      <trkpt lat="-2.54740583333333" lon="102.040157383333">
        <ele>732.776</ele>
        <time>2024-07-25T18:41:56Z</time>
      </trkpt>
      <trkpt lat="-2.5473144" lon="102.0400988">
        <ele>732.056</ele>
        <time>2024-07-25T18:41:58Z</time>
      </trkpt>
      <trkpt lat="-2.54722741666667" lon="102.04005375">
        <ele>731.892</ele>
        <time>2024-07-25T18:42:00Z</time>
      </trkpt>
      <trkpt lat="-2.54714908333333" lon="102.040037616667">
        <ele>733.249</ele>
        <time>2024-07-25T18:42:02Z</time>
      </trkpt>
      <trkpt lat="-2.5470723" lon="102.040014283333">
        <ele>733.942</ele>
        <time>2024-07-25T18:42:04Z</time>
      </trkpt>
      <trkpt lat="-2.54697063333333" lon="102.039993216667">
        <ele>732.959</ele>
        <time>2024-07-25T18:42:06Z</time>
      </trkpt>
      <trkpt lat="-2.54684528333333" lon="102.04002985">
        <ele>733.841</ele>
        <time>2024-07-25T18:42:08Z</time>
      </trkpt>
      <trkpt lat="-2.5467123" lon="102.040093933333">
        <ele>735.508</ele>
        <time>2024-07-25T18:42:10Z</time>
      </trkpt>
      <trkpt lat="-2.54658331666667" lon="102.040167633333">
        <ele>735.705</ele>
        <time>2024-07-25T18:42:12Z</time>
      </trkpt>
      <trkpt lat="-2.54644316666667" lon="102.040261716667">
        <ele>735.89</ele>
        <time>2024-07-25T18:42:14Z</time>
      </trkpt>
      <trkpt lat="-2.54629696666667" lon="102.040363166667">
        <ele>735.677</ele>
        <time>2024-07-25T18:42:16Z</time>
      </trkpt>
      <trkpt lat="-2.546166" lon="102.040476316667">
        <ele>735.923</ele>
        <time>2024-07-25T18:42:18Z</time>
      </trkpt>
      <trkpt lat="-2.546047" lon="102.040579033333">
        <ele>738.405</ele>
        <time>2024-07-25T18:42:20Z</time>
      </trkpt>
      <trkpt lat="-2.5459112" lon="102.040684033333">
        <ele>740.029</ele>
        <time>2024-07-25T18:42:22Z</time>
      </trkpt>
      <trkpt lat="-2.54578373333333" lon="102.040810933333">
        <ele>741.645</ele>
        <time>2024-07-25T18:42:24Z</time>
      </trkpt>
      <trkpt lat="-2.54569678333333" lon="102.04096425">
        <ele>742.924</ele>
        <time>2024-07-25T18:42:26Z</time>
      </trkpt>
      <trkpt lat="-2.54559943333333" lon="102.041101766667">
        <ele>745.317</ele>
        <time>2024-07-25T18:42:28Z</time>
      </trkpt>
      <trkpt lat="-2.54548961666667" lon="102.041229583333">
        <ele>745.977</ele>
        <time>2024-07-25T18:42:30Z</time>
      </trkpt>
      <trkpt lat="-2.54532368333333" lon="102.04131425">
        <ele>744.682</ele>
        <time>2024-07-25T18:42:32Z</time>
      </trkpt>
      <trkpt lat="-2.54514681666667" lon="102.041384733333">
        <ele>744.631</ele>
        <time>2024-07-25T18:42:34Z</time>
      </trkpt>
      <trkpt lat="-2.5449746" lon="102.041416116667">
        <ele>743.185</ele>
        <time>2024-07-25T18:42:36Z</time>
      </trkpt>
      <trkpt lat="-2.5448036" lon="102.041411483333">
        <ele>739.779</ele>
        <time>2024-07-25T18:42:38Z</time>
      </trkpt>
      <trkpt lat="-2.54463521666667" lon="102.0413951">
        <ele>735.409</ele>
        <time>2024-07-25T18:42:40Z</time>
      </trkpt>
      <trkpt lat="-2.54445918333333" lon="102.041384283333">
        <ele>731.173</ele>
        <time>2024-07-25T18:42:42Z</time>
      </trkpt>
      <trkpt lat="-2.544268" lon="102.041360816667">
        <ele>728.795</ele>
        <time>2024-07-25T18:42:44Z</time>
      </trkpt>
      <trkpt lat="-2.54404851666667" lon="102.041344116667">
        <ele>728.278</ele>
        <time>2024-07-25T18:42:46Z</time>
      </trkpt>
      <trkpt lat="-2.54385898333333" lon="102.041349933333">
        <ele>728.221</ele>
        <time>2024-07-25T18:42:48Z</time>
      </trkpt>
      <trkpt lat="-2.5436809" lon="102.041328933333">
        <ele>726.542</ele>
        <time>2024-07-25T18:42:50Z</time>
      </trkpt>
      <trkpt lat="-2.5435233" lon="102.041293383333">
        <ele>727.125</ele>
        <time>2024-07-25T18:42:52Z</time>
      </trkpt>
      <trkpt lat="-2.54334831666667" lon="102.0412208">
        <ele>725.94</ele>
        <time>2024-07-25T18:42:54Z</time>
      </trkpt>
      <trkpt lat="-2.54318863333333" lon="102.04111475">
        <ele>726.272</ele>
        <time>2024-07-25T18:42:56Z</time>
      </trkpt>
      <trkpt lat="-2.54301678333333" lon="102.0409896">
        <ele>729.623</ele>
        <time>2024-07-25T18:42:58Z</time>
      </trkpt>
      <trkpt lat="-2.54284163333333" lon="102.040888366667">
        <ele>729.764</ele>
        <time>2024-07-25T18:43:00Z</time>
      </trkpt>
      <trkpt lat="-2.54266096666667" lon="102.040804466667">
        <ele>726.599</ele>
        <time>2024-07-25T18:43:02Z</time>
      </trkpt>
      <trkpt lat="-2.54247863333333" lon="102.040714033333">
        <ele>718.961</ele>
        <time>2024-07-25T18:43:04Z</time>
      </trkpt>
      <trkpt lat="-2.54234036666667" lon="102.04065995">
        <ele>713.041</ele>
        <time>2024-07-25T18:43:06Z</time>
      </trkpt>
      <trkpt lat="-2.54224078333333" lon="102.040632116667">
        <ele>714.494</ele>
        <time>2024-07-25T18:43:08Z</time>
      </trkpt>
      <trkpt lat="-2.54214165" lon="102.040624583333">
        <ele>718.775</ele>
        <time>2024-07-25T18:43:10Z</time>
      </trkpt>
      <trkpt lat="-2.54205186666667" lon="102.040553983333">
        <ele>717.452</ele>
        <time>2024-07-25T18:43:12Z</time>
      </trkpt>
      <trkpt lat="-2.54195603333333" lon="102.0404561">
        <ele>716.632</ele>
        <time>2024-07-25T18:43:14Z</time>
      </trkpt>
      <trkpt lat="-2.54186278333333" lon="102.040397966667">
        <ele>716.726</ele>
        <time>2024-07-25T18:43:16Z</time>
      </trkpt>
      <trkpt lat="-2.54180186666667" lon="102.04031025">
        <ele>714.261</ele>
        <time>2024-07-25T18:43:18Z</time>
      </trkpt>
      <trkpt lat="-2.54178321666667" lon="102.040196133333">
        <ele>713.255</ele>
        <time>2024-07-25T18:43:20Z</time>
      </trkpt>
      <trkpt lat="-2.5417828" lon="102.04007105">
        <ele>709.602</ele>
        <time>2024-07-25T18:43:22Z</time>
      </trkpt>
      <trkpt lat="-2.5417739" lon="102.039953933333">
        <ele>708.595</ele>
        <time>2024-07-25T18:43:24Z</time>
      </trkpt>
      <trkpt lat="-2.5417152" lon="102.039837083333">
        <ele>706.053</ele>
        <time>2024-07-25T18:43:26Z</time>
      </trkpt>
      <trkpt lat="-2.54164095" lon="102.0397373">
        <ele>705.425</ele>
        <time>2024-07-25T18:43:28Z</time>
      </trkpt>
      <trkpt lat="-2.5415788" lon="102.039668016667">
        <ele>708.665</ele>
        <time>2024-07-25T18:43:30Z</time>
      </trkpt>
      <trkpt lat="-2.54147045" lon="102.039659166667">
        <ele>709.785</ele>
        <time>2024-07-25T18:43:32Z</time>
      </trkpt>
      <trkpt lat="-2.54131451666667" lon="102.03960435">
        <ele>707.508</ele>
        <time>2024-07-25T18:43:34Z</time>
      </trkpt>
      <trkpt lat="-2.54118375" lon="102.039529466667">
        <ele>708.388</ele>
        <time>2024-07-25T18:43:36Z</time>
      </trkpt>
      <trkpt lat="-2.54114355" lon="102.0394272">
        <ele>706.729</ele>
        <time>2024-07-25T18:43:38Z</time>
      </trkpt>
      <trkpt lat="-2.54109995" lon="102.039302583333">
        <ele>703.035</ele>
        <time>2024-07-25T18:43:40Z</time>
      </trkpt>
      <trkpt lat="-2.54100913333333" lon="102.039212683333">
        <ele>699.315</ele>
        <time>2024-07-25T18:43:42Z</time>
      </trkpt>
      <trkpt lat="-2.5409425" lon="102.039118983333">
        <ele>694.74</ele>
        <time>2024-07-25T18:43:44Z</time>
      </trkpt>
      <trkpt lat="-2.54089901666667" lon="102.0390181">
        <ele>693.279</ele>
        <time>2024-07-25T18:43:46Z</time>
      </trkpt>
      <trkpt lat="-2.54084713333333" lon="102.03890505">
        <ele>690.037</ele>
        <time>2024-07-25T18:43:48Z</time>
      </trkpt>
      <trkpt lat="-2.54076945" lon="102.0387984">
        <ele>689.86</ele>
        <time>2024-07-25T18:43:50Z</time>
      </trkpt>
      <trkpt lat="-2.54067376666667" lon="102.038736483333">
        <ele>691.309</ele>
        <time>2024-07-25T18:43:52Z</time>
      </trkpt>
      <trkpt lat="-2.54053398333333" lon="102.038686916667">
        <ele>693.384</ele>
        <time>2024-07-25T18:43:54Z</time>
      </trkpt>
      <trkpt lat="-2.5403533" lon="102.038701333333">
        <ele>693.669</ele>
        <time>2024-07-25T18:43:56Z</time>
      </trkpt>
      <trkpt lat="-2.5401795" lon="102.038716616667">
        <ele>695.091</ele>
        <time>2024-07-25T18:43:58Z</time>
      </trkpt>
      <trkpt lat="-2.54000221666667" lon="102.038731966667">
        <ele>697.965</ele>
        <time>2024-07-25T18:44:00Z</time>
      </trkpt>
      <trkpt lat="-2.53982016666667" lon="102.038765516667">
        <ele>698.43</ele>
        <time>2024-07-25T18:44:02Z</time>
      </trkpt>
      <trkpt lat="-2.53964581666667" lon="102.038868033333">
        <ele>693.897</ele>
        <time>2024-07-25T18:44:04Z</time>
      </trkpt>
      <trkpt lat="-2.53953691666667" lon="102.03898145">
        <ele>695.969</ele>
        <time>2024-07-25T18:44:06Z</time>
      </trkpt>
      <trkpt lat="-2.5394176" lon="102.039065083333">
        <ele>693.313</ele>
        <time>2024-07-25T18:44:08Z</time>
      </trkpt>
      <trkpt lat="-2.53929928333333" lon="102.03911425">
        <ele>691.08</ele>
        <time>2024-07-25T18:44:10Z</time>
      </trkpt>
      <trkpt lat="-2.53921283333333" lon="102.0391147">
        <ele>693.538</ele>
        <time>2024-07-25T18:44:12Z</time>
      </trkpt>
      <trkpt lat="-2.53915418333333" lon="102.03903945">
        <ele>692.815</ele>
        <time>2024-07-25T18:44:14Z</time>
      </trkpt>
      <trkpt lat="-2.53906998333333" lon="102.0389188">
        <ele>694.963</ele>
        <time>2024-07-25T18:44:16Z</time>
      </trkpt>
      <trkpt lat="-2.53894946666667" lon="102.03892575">
        <ele>695.068</ele>
        <time>2024-07-25T18:44:18Z</time>
      </trkpt>
      <trkpt lat="-2.53884518333333" lon="102.039019433333">
        <ele>697.62</ele>
        <time>2024-07-25T18:44:20Z</time>
      </trkpt>
      <trkpt lat="-2.53871705" lon="102.039095016667">
        <ele>696.251</ele>
        <time>2024-07-25T18:44:22Z</time>
      </trkpt>
      <trkpt lat="-2.53859755" lon="102.039170066667">
        <ele>695.122</ele>
        <time>2024-07-25T18:44:24Z</time>
      </trkpt>
      <trkpt lat="-2.53851143333333" lon="102.039259683333">
        <ele>697.252</ele>
        <time>2024-07-25T18:44:26Z</time>
      </trkpt>
      <trkpt lat="-2.53837306666667" lon="102.039319883333">
        <ele>694.484</ele>
        <time>2024-07-25T18:44:28Z</time>
      </trkpt>
      <trkpt lat="-2.53822066666667" lon="102.039402633333">
        <ele>695.062</ele>
        <time>2024-07-25T18:44:30Z</time>
      </trkpt>
      <trkpt lat="-2.538073" lon="102.0394691">
        <ele>691.386</ele>
        <time>2024-07-25T18:44:32Z</time>
      </trkpt>
      <trkpt lat="-2.53794306666667" lon="102.039547816667">
        <ele>688.077</ele>
        <time>2024-07-25T18:44:34Z</time>
      </trkpt>
      <trkpt lat="-2.53779443333333" lon="102.03961735">
        <ele>687.357</ele>
        <time>2024-07-25T18:44:36Z</time>
      </trkpt>
      <trkpt lat="-2.53766656666667" lon="102.039672616667">
        <ele>687.321</ele>
        <time>2024-07-25T18:44:38Z</time>
      </trkpt>
      <trkpt lat="-2.53753251666667" lon="102.039743516667">
        <ele>687.494</ele>
        <time>2024-07-25T18:44:40Z</time>
      </trkpt>
      <trkpt lat="-2.53737923333333" lon="102.0398317">
        <ele>688.881</ele>
        <time>2024-07-25T18:44:42Z</time>
      </trkpt>
      <trkpt lat="-2.53721805" lon="102.039932816667">
        <ele>692.405</ele>
        <time>2024-07-25T18:44:44Z</time>
      </trkpt>
      <trkpt lat="-2.53708235" lon="102.040008683333">
        <ele>693.819</ele>
        <time>2024-07-25T18:44:46Z</time>
      </trkpt>
      <trkpt lat="-2.53699241666667" lon="102.040074233333">
        <ele>692.165</ele>
        <time>2024-07-25T18:44:48Z</time>
      </trkpt>
      <trkpt lat="-2.5368997" lon="102.04013735">
        <ele>686.933</ele>
        <time>2024-07-25T18:44:50Z</time>
      </trkpt>
      <trkpt lat="-2.53681533333333" lon="102.040235583333">
        <ele>684.041</ele>
        <time>2024-07-25T18:44:52Z</time>
      </trkpt>
      <trkpt lat="-2.53676831666667" lon="102.040315916667">
        <ele>679.223</ele>
        <time>2024-07-25T18:44:54Z</time>
      </trkpt>
      <trkpt lat="-2.53674703333333" lon="102.040347383333">
        <ele>679.223</ele>
        <time>2024-07-25T18:44:56Z</time>
      </trkpt>
      <trkpt lat="-2.53671888333333" lon="102.040383883333">
        <ele>679.753</ele>
        <time>2024-07-25T18:44:58Z</time>
      </trkpt>
      <trkpt lat="-2.53667535" lon="102.040422266667">
        <ele>679.874</ele>
        <time>2024-07-25T18:45:00Z</time>
      </trkpt>
      <trkpt lat="-2.53658818333333" lon="102.040493016667">
        <ele>681.938</ele>
        <time>2024-07-25T18:45:02Z</time>
      </trkpt>
      <trkpt lat="-2.53649441666667" lon="102.040580816667">
        <ele>686.248</ele>
        <time>2024-07-25T18:45:04Z</time>
      </trkpt>
      <trkpt lat="-2.53639648333333" lon="102.04068605">
        <ele>688.945</ele>
        <time>2024-07-25T18:45:06Z</time>
      </trkpt>
      <trkpt lat="-2.53628731666667" lon="102.040761433333">
        <ele>691.121</ele>
        <time>2024-07-25T18:45:08Z</time>
      </trkpt>
      <trkpt lat="-2.53613226666667" lon="102.04076875">
        <ele>691.505</ele>
        <time>2024-07-25T18:45:10Z</time>
      </trkpt>
      <trkpt lat="-2.53595825" lon="102.040763183333">
        <ele>691.172</ele>
        <time>2024-07-25T18:45:12Z</time>
      </trkpt>
      <trkpt lat="-2.5358035" lon="102.040799816667">
        <ele>690.811</ele>
        <time>2024-07-25T18:45:14Z</time>
      </trkpt>
      <trkpt lat="-2.53569798333333" lon="102.040887033333">
        <ele>692.6</ele>
        <time>2024-07-25T18:45:16Z</time>
      </trkpt>
      <trkpt lat="-2.53556626666667" lon="102.0409637">
        <ele>690.927</ele>
        <time>2024-07-25T18:45:18Z</time>
      </trkpt>
      <trkpt lat="-2.53543921666667" lon="102.0410009">
        <ele>690.029</ele>
        <time>2024-07-25T18:45:20Z</time>
      </trkpt>
      <trkpt lat="-2.53531383333333" lon="102.041011733333">
        <ele>688.384</ele>
        <time>2024-07-25T18:45:22Z</time>
      </trkpt>
      <trkpt lat="-2.5351955" lon="102.040961416667">
        <ele>688.374</ele>
        <time>2024-07-25T18:45:24Z</time>
      </trkpt>
      <trkpt lat="-2.53507393333333" lon="102.040913433333">
        <ele>690.276</ele>
        <time>2024-07-25T18:45:26Z</time>
      </trkpt>
      <trkpt lat="-2.53497308333333" lon="102.0408914">
        <ele>693.462</ele>
        <time>2024-07-25T18:45:28Z</time>
      </trkpt>
      <trkpt lat="-2.5348496" lon="102.040847466667">
        <ele>696.656</ele>
        <time>2024-07-25T18:45:30Z</time>
      </trkpt>
      <trkpt lat="-2.53467773333333" lon="102.04081105">
        <ele>702.598</ele>
        <time>2024-07-25T18:45:32Z</time>
      </trkpt>
      <trkpt lat="-2.53449306666667" lon="102.040771316667">
        <ele>705.286</ele>
        <time>2024-07-25T18:45:34Z</time>
      </trkpt>
      <trkpt lat="-2.53428475" lon="102.040753916667">
        <ele>705.512</ele>
        <time>2024-07-25T18:45:36Z</time>
      </trkpt>
      <trkpt lat="-2.53411108333333" lon="102.04080075">
        <ele>703.936</ele>
        <time>2024-07-25T18:45:38Z</time>
      </trkpt>
      <trkpt lat="-2.53393756666667" lon="102.04083855">
        <ele>702.728</ele>
        <time>2024-07-25T18:45:40Z</time>
      </trkpt>
      <trkpt lat="-2.53376036666667" lon="102.040858866667">
        <ele>704.221</ele>
        <time>2024-07-25T18:45:42Z</time>
      </trkpt>
      <trkpt lat="-2.5335531" lon="102.04086965">
        <ele>702.568</ele>
        <time>2024-07-25T18:45:44Z</time>
      </trkpt>
      <trkpt lat="-2.53332586666667" lon="102.04089345">
        <ele>702.166</ele>
        <time>2024-07-25T18:45:46Z</time>
      </trkpt>
      <trkpt lat="-2.53309333333333" lon="102.04090685">
        <ele>702.905</ele>
        <time>2024-07-25T18:45:48Z</time>
      </trkpt>
      <trkpt lat="-2.53287783333333" lon="102.0409068">
        <ele>698.024</ele>
        <time>2024-07-25T18:45:50Z</time>
      </trkpt>
      <trkpt lat="-2.53269116666667" lon="102.040926183333">
        <ele>699.234</ele>
        <time>2024-07-25T18:45:52Z</time>
      </trkpt>
      <trkpt lat="-2.532512" lon="102.040905683333">
        <ele>702.551</ele>
        <time>2024-07-25T18:45:54Z</time>
      </trkpt>
      <trkpt lat="-2.53231111666667" lon="102.040842466667">
        <ele>704.535</ele>
        <time>2024-07-25T18:45:56Z</time>
      </trkpt>
      <trkpt lat="-2.53213525" lon="102.040841966667">
        <ele>701.935</ele>
        <time>2024-07-25T18:45:58Z</time>
      </trkpt>
      <trkpt lat="-2.53196461666667" lon="102.040808233333">
        <ele>695.755</ele>
        <time>2024-07-25T18:46:00Z</time>
      </trkpt>
      <trkpt lat="-2.53180441666667" lon="102.040867683333">
        <ele>693.589</ele>
        <time>2024-07-25T18:46:02Z</time>
      </trkpt>
      <trkpt lat="-2.53170893333333" lon="102.0409637">
        <ele>698.229</ele>
        <time>2024-07-25T18:46:04Z</time>
      </trkpt>
      <trkpt lat="-2.53170588333333" lon="102.041143816667">
        <ele>707.295</ele>
        <time>2024-07-25T18:46:06Z</time>
      </trkpt>
      <trkpt lat="-2.53166061666667" lon="102.041280616667">
        <ele>707.822</ele>
        <time>2024-07-25T18:46:08Z</time>
      </trkpt>
      <trkpt lat="-2.53159868333333" lon="102.04140095">
        <ele>705.215</ele>
        <time>2024-07-25T18:46:10Z</time>
      </trkpt>
      <trkpt lat="-2.53145375" lon="102.04142265">
        <ele>703.485</ele>
        <time>2024-07-25T18:46:12Z</time>
      </trkpt>
      <trkpt lat="-2.53124078333333" lon="102.041391033333">
        <ele>705.554</ele>
        <time>2024-07-25T18:46:14Z</time>
      </trkpt>
      <trkpt lat="-2.53102445" lon="102.041399783333">
        <ele>706.754</ele>
        <time>2024-07-25T18:46:16Z</time>
      </trkpt>
      <trkpt lat="-2.5308197" lon="102.041446833333">
        <ele>707.898</ele>
        <time>2024-07-25T18:46:18Z</time>
      </trkpt>
      <trkpt lat="-2.53064725" lon="102.041546033333">
        <ele>705.765</ele>
        <time>2024-07-25T18:46:20Z</time>
      </trkpt>
      <trkpt lat="-2.53053503333333" lon="102.041686366667">
        <ele>705.447</ele>
        <time>2024-07-25T18:46:22Z</time>
      </trkpt>
      <trkpt lat="-2.5304524" lon="102.041832166667">
        <ele>710.067</ele>
        <time>2024-07-25T18:46:24Z</time>
      </trkpt>
      <trkpt lat="-2.53034683333333" lon="102.041975666667">
        <ele>709.78</ele>
        <time>2024-07-25T18:46:26Z</time>
      </trkpt>
      <trkpt lat="-2.53024195" lon="102.042101383333">
        <ele>710.941</ele>
        <time>2024-07-25T18:46:28Z</time>
      </trkpt>
      <trkpt lat="-2.53012121666667" lon="102.042178633333">
        <ele>709.729</ele>
        <time>2024-07-25T18:46:30Z</time>
      </trkpt>
      <trkpt lat="-2.5299615" lon="102.0421947">
        <ele>708.91</ele>
        <time>2024-07-25T18:46:32Z</time>
      </trkpt>
      <trkpt lat="-2.52976981666667" lon="102.042200916667">
        <ele>707.378</ele>
        <time>2024-07-25T18:46:34Z</time>
      </trkpt>
      <trkpt lat="-2.5296236" lon="102.042252716667">
        <ele>705.964</ele>
        <time>2024-07-25T18:46:36Z</time>
      </trkpt>
      <trkpt lat="-2.52949198333333" lon="102.04231645">
        <ele>704.98</ele>
        <time>2024-07-25T18:46:38Z</time>
      </trkpt>
      <trkpt lat="-2.5293252" lon="102.0423775">
        <ele>704.273</ele>
        <time>2024-07-25T18:46:40Z</time>
      </trkpt>
      <trkpt lat="-2.52914081666667" lon="102.042423983333">
        <ele>709.336</ele>
        <time>2024-07-25T18:46:42Z</time>
      </trkpt>
      <trkpt lat="-2.52893951666667" lon="102.042442566667">
        <ele>709.886</ele>
        <time>2024-07-25T18:46:44Z</time>
      </trkpt>
      <trkpt lat="-2.52871673333333" lon="102.042462433333">
        <ele>708.691</ele>
        <time>2024-07-25T18:46:46Z</time>
      </trkpt>
      <trkpt lat="-2.52848876666667" lon="102.042499383333">
        <ele>707.95</ele>
        <time>2024-07-25T18:46:48Z</time>
      </trkpt>
      <trkpt lat="-2.52827556666667" lon="102.042525283333">
        <ele>705.069</ele>
        <time>2024-07-25T18:46:50Z</time>
      </trkpt>
      <trkpt lat="-2.5280885" lon="102.042538116667">
        <ele>704.67</ele>
        <time>2024-07-25T18:46:52Z</time>
      </trkpt>
      <trkpt lat="-2.52791461666667" lon="102.042577683333">
        <ele>705.633</ele>
        <time>2024-07-25T18:46:54Z</time>
      </trkpt>
      <trkpt lat="-2.52774116666667" lon="102.042635366667">
        <ele>704.992</ele>
        <time>2024-07-25T18:46:56Z</time>
      </trkpt>
      <trkpt lat="-2.5275622" lon="102.042675416667">
        <ele>708.15</ele>
        <time>2024-07-25T18:46:58Z</time>
      </trkpt>
      <trkpt lat="-2.5273902" lon="102.04272205">
        <ele>706.384</ele>
        <time>2024-07-25T18:47:00Z</time>
      </trkpt>
      <trkpt lat="-2.52720843333333" lon="102.0427684">
        <ele>707.693</ele>
        <time>2024-07-25T18:47:02Z</time>
      </trkpt>
      <trkpt lat="-2.52700195" lon="102.0428323">
        <ele>709.165</ele>
        <time>2024-07-25T18:47:04Z</time>
      </trkpt>
      <trkpt lat="-2.52678696666667" lon="102.042900066667">
        <ele>709.105</ele>
        <time>2024-07-25T18:47:06Z</time>
      </trkpt>
      <trkpt lat="-2.52660018333333" lon="102.042963716667">
        <ele>708.568</ele>
        <time>2024-07-25T18:47:08Z</time>
      </trkpt>
      <trkpt lat="-2.52642063333333" lon="102.04303865">
        <ele>707.602</ele>
        <time>2024-07-25T18:47:10Z</time>
      </trkpt>
      <trkpt lat="-2.52622291666667" lon="102.043123366667">
        <ele>707.446</ele>
        <time>2024-07-25T18:47:12Z</time>
      </trkpt>
      <trkpt lat="-2.526053" lon="102.0432186">
        <ele>706.834</ele>
        <time>2024-07-25T18:47:14Z</time>
      </trkpt>
      <trkpt lat="-2.52593801666667" lon="102.043343216667">
        <ele>706.486</ele>
        <time>2024-07-25T18:47:16Z</time>
      </trkpt>
      <trkpt lat="-2.52582191666667" lon="102.043501833333">
        <ele>705.015</ele>
        <time>2024-07-25T18:47:18Z</time>
      </trkpt>
      <trkpt lat="-2.52567296666667" lon="102.043682683333">
        <ele>705.23</ele>
        <time>2024-07-25T18:47:20Z</time>
      </trkpt>
      <trkpt lat="-2.52550575" lon="102.043892583333">
        <ele>704.716</ele>
        <time>2024-07-25T18:47:22Z</time>
      </trkpt>
      <trkpt lat="-2.52534288333333" lon="102.044079083333">
        <ele>703.647</ele>
        <time>2024-07-25T18:47:24Z</time>
      </trkpt>
      <trkpt lat="-2.52518265" lon="102.044253966667">
        <ele>702.775</ele>
        <time>2024-07-25T18:47:26Z</time>
      </trkpt>
      <trkpt lat="-2.52503436666667" lon="102.04438265">
        <ele>702.451</ele>
        <time>2024-07-25T18:47:28Z</time>
      </trkpt>
      <trkpt lat="-2.52486291666667" lon="102.044451816667">
        <ele>700.725</ele>
        <time>2024-07-25T18:47:30Z</time>
      </trkpt>
      <trkpt lat="-2.52463511666667" lon="102.044497683333">
        <ele>700.533</ele>
        <time>2024-07-25T18:47:32Z</time>
      </trkpt>
      <trkpt lat="-2.52439745" lon="102.044545983333">
        <ele>700.97</ele>
        <time>2024-07-25T18:47:34Z</time>
      </trkpt>
      <trkpt lat="-2.52414896666667" lon="102.04458825">
        <ele>700.724</ele>
        <time>2024-07-25T18:47:36Z</time>
      </trkpt>
      <trkpt lat="-2.52390403333333" lon="102.044619416667">
        <ele>700.827</ele>
        <time>2024-07-25T18:47:38Z</time>
      </trkpt>
      <trkpt lat="-2.52370931666667" lon="102.04465905">
        <ele>696.875</ele>
        <time>2024-07-25T18:47:40Z</time>
      </trkpt>
      <trkpt lat="-2.52352263333333" lon="102.0446768">
        <ele>695.141</ele>
        <time>2024-07-25T18:47:42Z</time>
      </trkpt>
      <trkpt lat="-2.5233217" lon="102.0447011">
        <ele>696.417</ele>
        <time>2024-07-25T18:47:44Z</time>
      </trkpt>
      <trkpt lat="-2.52311536666667" lon="102.044703216667">
        <ele>696.579</ele>
        <time>2024-07-25T18:47:46Z</time>
      </trkpt>
      <trkpt lat="-2.52291181666667" lon="102.044708133333">
        <ele>697.019</ele>
        <time>2024-07-25T18:47:48Z</time>
      </trkpt>
      <trkpt lat="-2.52270166666667" lon="102.044742016667">
        <ele>698.007</ele>
        <time>2024-07-25T18:47:50Z</time>
      </trkpt>
      <trkpt lat="-2.52247605" lon="102.044813716667">
        <ele>698.135</ele>
        <time>2024-07-25T18:47:52Z</time>
      </trkpt>
      <trkpt lat="-2.52225863333333" lon="102.044901433333">
        <ele>697.486</ele>
        <time>2024-07-25T18:47:54Z</time>
      </trkpt>
      <trkpt lat="-2.52207641666667" lon="102.044979016667">
        <ele>696.683</ele>
        <time>2024-07-25T18:47:56Z</time>
      </trkpt>
      <trkpt lat="-2.52192748333333" lon="102.0449939">
        <ele>699.332</ele>
        <time>2024-07-25T18:47:58Z</time>
      </trkpt>
      <trkpt lat="-2.52179368333333" lon="102.04497165">
        <ele>695.003</ele>
        <time>2024-07-25T18:48:00Z</time>
      </trkpt>
      <trkpt lat="-2.52165558333333" lon="102.044934483333">
        <ele>687.719</ele>
        <time>2024-07-25T18:48:02Z</time>
      </trkpt>
      <trkpt lat="-2.5215294" lon="102.0448833">
        <ele>683.512</ele>
        <time>2024-07-25T18:48:04Z</time>
      </trkpt>
      <trkpt lat="-2.52139336666667" lon="102.044831833333">
        <ele>679.944</ele>
        <time>2024-07-25T18:48:06Z</time>
      </trkpt>
      <trkpt lat="-2.52125253333333" lon="102.044772433333">
        <ele>677.608</ele>
        <time>2024-07-25T18:48:08Z</time>
      </trkpt>
      <trkpt lat="-2.52109336666667" lon="102.0447197">
        <ele>677.748</ele>
        <time>2024-07-25T18:48:10Z</time>
      </trkpt>
      <trkpt lat="-2.52093425" lon="102.04467665">
        <ele>680.889</ele>
        <time>2024-07-25T18:48:12Z</time>
      </trkpt>
      <trkpt lat="-2.5207829" lon="102.044627683333">
        <ele>681.288</ele>
        <time>2024-07-25T18:48:14Z</time>
      </trkpt>
      <trkpt lat="-2.52064586666667" lon="102.044585116667">
        <ele>680.719</ele>
        <time>2024-07-25T18:48:16Z</time>
      </trkpt>
      <trkpt lat="-2.52052608333333" lon="102.044574066667">
        <ele>685.778</ele>
        <time>2024-07-25T18:48:18Z</time>
      </trkpt>
      <trkpt lat="-2.52040305" lon="102.044591683333">
        <ele>684.32</ele>
        <time>2024-07-25T18:48:20Z</time>
      </trkpt>
      <trkpt lat="-2.52025215" lon="102.044627816667">
        <ele>685.997</ele>
        <time>2024-07-25T18:48:22Z</time>
      </trkpt>
      <trkpt lat="-2.52009665" lon="102.044656733333">
        <ele>687.061</ele>
        <time>2024-07-25T18:48:24Z</time>
      </trkpt>
      <trkpt lat="-2.51994938333333" lon="102.044707783333">
        <ele>687.083</ele>
        <time>2024-07-25T18:48:26Z</time>
      </trkpt>
      <trkpt lat="-2.51982061666667" lon="102.044760833333">
        <ele>687.17</ele>
        <time>2024-07-25T18:48:28Z</time>
      </trkpt>
      <trkpt lat="-2.5196953" lon="102.044858583333">
        <ele>685.771</ele>
        <time>2024-07-25T18:48:30Z</time>
      </trkpt>
      <trkpt lat="-2.51959215" lon="102.044953066667">
        <ele>676.398</ele>
        <time>2024-07-25T18:48:32Z</time>
      </trkpt>
      <trkpt lat="-2.51952255" lon="102.045046933333">
        <ele>676.089</ele>
        <time>2024-07-25T18:48:34Z</time>
      </trkpt>
      <trkpt lat="-2.51949646666667" lon="102.045125616667">
        <ele>673.621</ele>
        <time>2024-07-25T18:48:36Z</time>
      </trkpt>
      <trkpt lat="-2.51945646666667" lon="102.045187133333">
        <ele>669.792</ele>
        <time>2024-07-25T18:48:38Z</time>
      </trkpt>
      <trkpt lat="-2.51940051666667" lon="102.0452249">
        <ele>667.815</ele>
        <time>2024-07-25T18:48:40Z</time>
      </trkpt>
      <trkpt lat="-2.51933206666667" lon="102.04524865">
        <ele>665.833</ele>
        <time>2024-07-25T18:48:42Z</time>
      </trkpt>
      <trkpt lat="-2.51927055" lon="102.045206483333">
        <ele>664.976</ele>
        <time>2024-07-25T18:48:44Z</time>
      </trkpt>
      <trkpt lat="-2.5192334" lon="102.045141283333">
        <ele>664.893</ele>
        <time>2024-07-25T18:48:46Z</time>
      </trkpt>
      <trkpt lat="-2.51920733333333" lon="102.045075483333">
        <ele>662.637</ele>
        <time>2024-07-25T18:48:48Z</time>
      </trkpt>
      <trkpt lat="-2.51916045" lon="102.045039116667">
        <ele>660.408</ele>
        <time>2024-07-25T18:48:50Z</time>
      </trkpt>
      <trkpt lat="-2.51912115" lon="102.044992166667">
        <ele>657.72</ele>
        <time>2024-07-25T18:48:52Z</time>
      </trkpt>
      <trkpt lat="-2.5190816" lon="102.044939283333">
        <ele>655.545</ele>
        <time>2024-07-25T18:48:54Z</time>
      </trkpt>
      <trkpt lat="-2.51902718333333" lon="102.044909766667">
        <ele>653.191</ele>
        <time>2024-07-25T18:48:56Z</time>
      </trkpt>
      <trkpt lat="-2.51897478333333" lon="102.04489505">
        <ele>650.689</ele>
        <time>2024-07-25T18:48:58Z</time>
      </trkpt>
      <trkpt lat="-2.51893853333333" lon="102.04492225">
        <ele>652.011</ele>
        <time>2024-07-25T18:49:00Z</time>
      </trkpt>
      <trkpt lat="-2.51891245" lon="102.044963866667">
        <ele>650.961</ele>
        <time>2024-07-25T18:49:02Z</time>
      </trkpt>
      <trkpt lat="-2.51890635" lon="102.045017033333">
        <ele>650.067</ele>
        <time>2024-07-25T18:49:04Z</time>
      </trkpt>
      <trkpt lat="-2.51889848333333" lon="102.045076366667">
        <ele>650.206</ele>
        <time>2024-07-25T18:49:06Z</time>
      </trkpt>
      <trkpt lat="-2.51887565" lon="102.04514775">
        <ele>654.54</ele>
        <time>2024-07-25T18:49:08Z</time>
      </trkpt>
      <trkpt lat="-2.51884811666667" lon="102.045219216667">
        <ele>657.503</ele>
        <time>2024-07-25T18:49:10Z</time>
      </trkpt>
      <trkpt lat="-2.51881901666667" lon="102.045295833333">
        <ele>656.273</ele>
        <time>2024-07-25T18:49:12Z</time>
      </trkpt>
      <trkpt lat="-2.5187831" lon="102.04536815">
        <ele>652.923</ele>
        <time>2024-07-25T18:49:14Z</time>
      </trkpt>
      <trkpt lat="-2.51875713333333" lon="102.045459833333">
        <ele>648.755</ele>
        <time>2024-07-25T18:49:16Z</time>
      </trkpt>
      <trkpt lat="-2.51870681666667" lon="102.0455458">
        <ele>649.426</ele>
        <time>2024-07-25T18:49:18Z</time>
      </trkpt>
      <trkpt lat="-2.5186482" lon="102.04562525">
        <ele>650.217</ele>
        <time>2024-07-25T18:49:20Z</time>
      </trkpt>
      <trkpt lat="-2.51860565" lon="102.045692983333">
        <ele>650.233</ele>
        <time>2024-07-25T18:49:22Z</time>
      </trkpt>
      <trkpt lat="-2.51858513333333" lon="102.045713133333">
        <ele>651.326</ele>
        <time>2024-07-25T18:49:24Z</time>
      </trkpt>
      <trkpt lat="-2.5179382" lon="102.045745716667">
        <ele>655.146</ele>
        <time>2024-07-25T18:49:26Z</time>
      </trkpt>
      <trkpt lat="-2.51791928333333" lon="102.045747283333">
        <ele>661.909</ele>
        <time>2024-07-25T18:49:28Z</time>
      </trkpt>
      <trkpt lat="-2.51791928333333" lon="102.0457663">
        <ele>665.823</ele>
        <time>2024-07-25T18:49:30Z</time>
      </trkpt>
      <trkpt lat="-2.51789463333333" lon="102.045760583333">
        <ele>668.474</ele>
        <time>2024-07-25T18:49:32Z</time>
      </trkpt>
      <trkpt lat="-2.51790653333333" lon="102.045784233333">
        <ele>668.99</ele>
        <time>2024-07-25T18:49:34Z</time>
      </trkpt>
      <trkpt lat="-2.51788563333333" lon="102.04579355">
        <ele>667.655</ele>
        <time>2024-07-25T18:49:36Z</time>
      </trkpt>
      <trkpt lat="-2.5178565" lon="102.045773366667">
        <ele>667.459</ele>
        <time>2024-07-25T18:49:38Z</time>
      </trkpt>
      <trkpt lat="-2.51781728333333" lon="102.0457532">
        <ele>667.495</ele>
        <time>2024-07-25T18:49:40Z</time>
      </trkpt>
      <trkpt lat="-2.5177785" lon="102.045737216667">
        <ele>667.338</ele>
        <time>2024-07-25T18:49:42Z</time>
      </trkpt>
      <trkpt lat="-2.51775013333333" lon="102.04572585">
        <ele>667.654</ele>
        <time>2024-07-25T18:49:44Z</time>
      </trkpt>
      <trkpt lat="-2.5177042" lon="102.045701566667">
        <ele>665.497</ele>
        <time>2024-07-25T18:49:46Z</time>
      </trkpt>
      <trkpt lat="-2.51763671666667" lon="102.045692716667">
        <ele>665.861</ele>
        <time>2024-07-25T18:49:48Z</time>
      </trkpt>
      <trkpt lat="-2.51758883333333" lon="102.04564495">
        <ele>660.872</ele>
        <time>2024-07-25T18:49:50Z</time>
      </trkpt>
      <trkpt lat="-2.51755361666667" lon="102.04560165">
        <ele>657.725</ele>
        <time>2024-07-25T18:49:52Z</time>
      </trkpt>
      <trkpt lat="-2.5175226" lon="102.045583816667">
        <ele>656.874</ele>
        <time>2024-07-25T18:49:54Z</time>
      </trkpt>
      <trkpt lat="-2.5175211" lon="102.0455566">
        <ele>656.783</ele>
        <time>2024-07-25T18:49:56Z</time>
      </trkpt>
      <trkpt lat="-2.51750608333333" lon="102.0455382">
        <ele>656.362</ele>
        <time>2024-07-25T18:49:58Z</time>
      </trkpt>
      <trkpt lat="-2.51746188333333" lon="102.045530183333">
        <ele>656.803</ele>
        <time>2024-07-25T18:50:00Z</time>
      </trkpt>
      <trkpt lat="-2.5174116" lon="102.04552505">
        <ele>658.129</ele>
        <time>2024-07-25T18:50:02Z</time>
      </trkpt>
      <trkpt lat="-2.51735408333333" lon="102.045516566667">
        <ele>658.856</ele>
        <time>2024-07-25T18:50:04Z</time>
      </trkpt>
      <trkpt lat="-2.5173028" lon="102.045495083333">
        <ele>662.107</ele>
        <time>2024-07-25T18:50:06Z</time>
      </trkpt>
      <trkpt lat="-2.51726006666667" lon="102.0454393">
        <ele>661.785</ele>
        <time>2024-07-25T18:50:08Z</time>
      </trkpt>
      <trkpt lat="-2.51723373333333" lon="102.045403">
        <ele>662.46</ele>
        <time>2024-07-25T18:50:10Z</time>
      </trkpt>
      <trkpt lat="-2.51722135" lon="102.04538035">
        <ele>662.461</ele>
        <time>2024-07-25T18:50:12Z</time>
      </trkpt>
      <trkpt lat="-2.51720995" lon="102.0453595">
        <ele>662.46</ele>
        <time>2024-07-25T18:50:14Z</time>
      </trkpt>
      <trkpt lat="-2.51720105" lon="102.045343233333">
        <ele>662.46</ele>
        <time>2024-07-25T18:50:16Z</time>
      </trkpt>
      <trkpt lat="-2.51719518333333" lon="102.045319583333">
        <ele>661.508</ele>
        <time>2024-07-25T18:50:18Z</time>
      </trkpt>
      <trkpt lat="-2.51718903333333" lon="102.0452884">
        <ele>661.984</ele>
        <time>2024-07-25T18:50:20Z</time>
      </trkpt>
      <trkpt lat="-2.51717301666667" lon="102.0452708">
        <ele>662.861</ele>
        <time>2024-07-25T18:50:22Z</time>
      </trkpt>
      <trkpt lat="-2.51715685" lon="102.0452452">
        <ele>664.245</ele>
        <time>2024-07-25T18:50:24Z</time>
      </trkpt>
      <trkpt lat="-2.51714576666667" lon="102.04522215">
        <ele>665.51</ele>
        <time>2024-07-25T18:50:26Z</time>
      </trkpt>
      <trkpt lat="-2.51713445" lon="102.045199583333">
        <ele>664.34</ele>
        <time>2024-07-25T18:50:28Z</time>
      </trkpt>
      <trkpt lat="-2.51712311666667" lon="102.045178833333">
        <ele>664.34</ele>
        <time>2024-07-25T18:50:30Z</time>
      </trkpt>
      <trkpt lat="-2.51710996666667" lon="102.04516275">
        <ele>663.25</ele>
        <time>2024-07-25T18:50:32Z</time>
      </trkpt>
      <trkpt lat="-2.51709723333333" lon="102.045139483333">
        <ele>663.25</ele>
        <time>2024-07-25T18:50:34Z</time>
      </trkpt>
      <trkpt lat="-2.51707768333333" lon="102.045088066667">
        <ele>676.955</ele>
        <time>2024-07-25T18:50:36Z</time>
      </trkpt>
      <trkpt lat="-2.5170603" lon="102.04509485">
        <ele>676.956</ele>
        <time>2024-07-25T18:50:38Z</time>
      </trkpt>
      <trkpt lat="-2.5170407" lon="102.045080183333">
        <ele>673.115</ele>
        <time>2024-07-25T18:50:40Z</time>
      </trkpt>
      <trkpt lat="-2.51702043333333" lon="102.045064716667">
        <ele>673.148</ele>
        <time>2024-07-25T18:50:42Z</time>
      </trkpt>
      <trkpt lat="-2.51699973333333" lon="102.0450452">
        <ele>674.666</ele>
        <time>2024-07-25T18:50:44Z</time>
      </trkpt>
      <trkpt lat="-2.5169797" lon="102.0450228">
        <ele>675.664</ele>
        <time>2024-07-25T18:50:46Z</time>
      </trkpt>
      <trkpt lat="-2.5169662" lon="102.045010116667">
        <ele>676.116</ele>
        <time>2024-07-25T18:50:48Z</time>
      </trkpt>
      <trkpt lat="-2.51693488333333" lon="102.04498655">
        <ele>677.054</ele>
        <time>2024-07-25T18:50:50Z</time>
      </trkpt>
      <trkpt lat="-2.51690491666667" lon="102.04494265">
        <ele>677.47</ele>
        <time>2024-07-25T18:50:52Z</time>
      </trkpt>
      <trkpt lat="-2.51686876666667" lon="102.044892766667">
        <ele>679.326</ele>
        <time>2024-07-25T18:50:54Z</time>
      </trkpt>
      <trkpt lat="-2.51683073333333" lon="102.044838616667">
        <ele>678.824</ele>
        <time>2024-07-25T18:50:56Z</time>
      </trkpt>
      <trkpt lat="-2.5167994" lon="102.0447997">
        <ele>679.22</ele>
        <time>2024-07-25T18:50:58Z</time>
      </trkpt>
      <trkpt lat="-2.51675591666667" lon="102.044751416667">
        <ele>677.914</ele>
        <time>2024-07-25T18:51:00Z</time>
      </trkpt>
      <trkpt lat="-2.51671056666667" lon="102.04467745">
        <ele>674.081</ele>
        <time>2024-07-25T18:51:02Z</time>
      </trkpt>
      <trkpt lat="-2.51667013333333" lon="102.044608616667">
        <ele>671.395</ele>
        <time>2024-07-25T18:51:04Z</time>
      </trkpt>
      <trkpt lat="-2.51664726666667" lon="102.044519616667">
        <ele>674.803</ele>
        <time>2024-07-25T18:51:06Z</time>
      </trkpt>
      <trkpt lat="-2.51660541666667" lon="102.044454083333">
        <ele>677.361</ele>
        <time>2024-07-25T18:51:08Z</time>
      </trkpt>
      <trkpt lat="-2.5165501" lon="102.044408216667">
        <ele>675.188</ele>
        <time>2024-07-25T18:51:10Z</time>
      </trkpt>
      <trkpt lat="-2.51648221666667" lon="102.044370316667">
        <ele>676.166</ele>
        <time>2024-07-25T18:51:12Z</time>
      </trkpt>
      <trkpt lat="-2.51639408333333" lon="102.044317766667">
        <ele>679.699</ele>
        <time>2024-07-25T18:51:14Z</time>
      </trkpt>
      <trkpt lat="-2.5162927" lon="102.044258783333">
        <ele>679.688</ele>
        <time>2024-07-25T18:51:16Z</time>
      </trkpt>
      <trkpt lat="-2.51618916666667" lon="102.04419245">
        <ele>682.307</ele>
        <time>2024-07-25T18:51:18Z</time>
      </trkpt>
      <trkpt lat="-2.51609698333333" lon="102.044120083333">
        <ele>685.231</ele>
        <time>2024-07-25T18:51:20Z</time>
      </trkpt>
      <trkpt lat="-2.51599988333333" lon="102.044045566667">
        <ele>686.043</ele>
        <time>2024-07-25T18:51:22Z</time>
      </trkpt>
      <trkpt lat="-2.51589105" lon="102.043974566667">
        <ele>687.453</ele>
        <time>2024-07-25T18:51:24Z</time>
      </trkpt>
      <trkpt lat="-2.51578666666667" lon="102.043897733333">
        <ele>688.313</ele>
        <time>2024-07-25T18:51:26Z</time>
      </trkpt>
      <trkpt lat="-2.51567928333333" lon="102.043823966667">
        <ele>690.086</ele>
        <time>2024-07-25T18:51:28Z</time>
      </trkpt>
      <trkpt lat="-2.51558655" lon="102.0437584">
        <ele>690.502</ele>
        <time>2024-07-25T18:51:30Z</time>
      </trkpt>
      <trkpt lat="-2.51550546666667" lon="102.043723683333">
        <ele>693.964</ele>
        <time>2024-07-25T18:51:32Z</time>
      </trkpt>
      <trkpt lat="-2.5154171" lon="102.043710233333">
        <ele>695.241</ele>
        <time>2024-07-25T18:51:34Z</time>
      </trkpt>
      <trkpt lat="-2.51531705" lon="102.0437181">
        <ele>696.992</ele>
        <time>2024-07-25T18:51:36Z</time>
      </trkpt>
      <trkpt lat="-2.51518418333333" lon="102.043740883333">
        <ele>697.835</ele>
        <time>2024-07-25T18:51:38Z</time>
      </trkpt>
      <trkpt lat="-2.51506935" lon="102.043747783333">
        <ele>697.75</ele>
        <time>2024-07-25T18:51:40Z</time>
      </trkpt>
      <trkpt lat="-2.51495315" lon="102.043779216667">
        <ele>698.612</ele>
        <time>2024-07-25T18:51:42Z</time>
      </trkpt>
      <trkpt lat="-2.51482526666667" lon="102.04383535">
        <ele>697.732</ele>
        <time>2024-07-25T18:51:44Z</time>
      </trkpt>
      <trkpt lat="-2.51469226666667" lon="102.043865083333">
        <ele>696.486</ele>
        <time>2024-07-25T18:51:46Z</time>
      </trkpt>
      <trkpt lat="-2.51458095" lon="102.043896183333">
        <ele>695.366</ele>
        <time>2024-07-25T18:51:48Z</time>
      </trkpt>
      <trkpt lat="-2.51450493333333" lon="102.0439741">
        <ele>694.913</ele>
        <time>2024-07-25T18:51:50Z</time>
      </trkpt>
      <trkpt lat="-2.51444715" lon="102.044073666667">
        <ele>694.2</ele>
        <time>2024-07-25T18:51:52Z</time>
      </trkpt>
      <trkpt lat="-2.51442873333333" lon="102.04416825">
        <ele>693.375</ele>
        <time>2024-07-25T18:51:54Z</time>
      </trkpt>
      <trkpt lat="-2.51441566666667" lon="102.044276983333">
        <ele>694.25</ele>
        <time>2024-07-25T18:51:56Z</time>
      </trkpt>
      <trkpt lat="-2.51439471666667" lon="102.04436265">
        <ele>694.667</ele>
        <time>2024-07-25T18:51:58Z</time>
      </trkpt>
      <trkpt lat="-2.51436055" lon="102.044440516667">
        <ele>691.718</ele>
        <time>2024-07-25T18:52:00Z</time>
      </trkpt>
      <trkpt lat="-2.51433511666667" lon="102.044505016667">
        <ele>691.549</ele>
        <time>2024-07-25T18:52:02Z</time>
      </trkpt>
      <trkpt lat="-2.51429233333333" lon="102.044537216667">
        <ele>691.421</ele>
        <time>2024-07-25T18:52:04Z</time>
      </trkpt>
      <trkpt lat="-2.51426221666667" lon="102.044580883333">
        <ele>691.913</ele>
        <time>2024-07-25T18:52:06Z</time>
      </trkpt>
      <trkpt lat="-2.51425775" lon="102.044667833333">
        <ele>689.97</ele>
        <time>2024-07-25T18:52:08Z</time>
      </trkpt>
      <trkpt lat="-2.51425623333333" lon="102.044739816667">
        <ele>688.872</ele>
        <time>2024-07-25T18:52:10Z</time>
      </trkpt>
      <trkpt lat="-2.51425153333333" lon="102.04482855">
        <ele>687.006</ele>
        <time>2024-07-25T18:52:12Z</time>
      </trkpt>
      <trkpt lat="-2.51416176666667" lon="102.04485185">
        <ele>688.856</ele>
        <time>2024-07-25T18:52:14Z</time>
      </trkpt>
      <trkpt lat="-2.51405608333333" lon="102.04490255">
        <ele>689.166</ele>
        <time>2024-07-25T18:52:16Z</time>
      </trkpt>
      <trkpt lat="-2.51394481666667" lon="102.0449416">
        <ele>688.745</ele>
        <time>2024-07-25T18:52:18Z</time>
      </trkpt>
      <trkpt lat="-2.51383061666667" lon="102.044951483333">
        <ele>690.322</ele>
        <time>2024-07-25T18:52:20Z</time>
      </trkpt>
      <trkpt lat="-2.513714" lon="102.044965016667">
        <ele>690.256</ele>
        <time>2024-07-25T18:52:22Z</time>
      </trkpt>
      <trkpt lat="-2.51359936666667" lon="102.044949883333">
        <ele>690.018</ele>
        <time>2024-07-25T18:52:24Z</time>
      </trkpt>
      <trkpt lat="-2.51348243333333" lon="102.04493745">
        <ele>693.155</ele>
        <time>2024-07-25T18:52:26Z</time>
      </trkpt>
      <trkpt lat="-2.51334796666667" lon="102.044893566667">
        <ele>694.309</ele>
        <time>2024-07-25T18:52:28Z</time>
      </trkpt>
      <trkpt lat="-2.51319113333333" lon="102.044832983333">
        <ele>693.471</ele>
        <time>2024-07-25T18:52:30Z</time>
      </trkpt>
      <trkpt lat="-2.51303653333333" lon="102.0447621">
        <ele>692.717</ele>
        <time>2024-07-25T18:52:32Z</time>
      </trkpt>
      <trkpt lat="-2.51288151666667" lon="102.044660883333">
        <ele>686.106</ele>
        <time>2024-07-25T18:52:34Z</time>
      </trkpt>
      <trkpt lat="-2.5127442" lon="102.044569616667">
        <ele>685.708</ele>
        <time>2024-07-25T18:52:36Z</time>
      </trkpt>
      <trkpt lat="-2.51263715" lon="102.044480416667">
        <ele>687.553</ele>
        <time>2024-07-25T18:52:38Z</time>
      </trkpt>
      <trkpt lat="-2.51259018333333" lon="102.04437545">
        <ele>693.512</ele>
        <time>2024-07-25T18:52:40Z</time>
      </trkpt>
      <trkpt lat="-2.51253555" lon="102.04428865">
        <ele>695.021</ele>
        <time>2024-07-25T18:52:42Z</time>
      </trkpt>
      <trkpt lat="-2.51248961666667" lon="102.044179183333">
        <ele>701.082</ele>
        <time>2024-07-25T18:52:44Z</time>
      </trkpt>
      <trkpt lat="-2.51243436666667" lon="102.044086216667">
        <ele>701.343</ele>
        <time>2024-07-25T18:52:46Z</time>
      </trkpt>
      <trkpt lat="-2.51236243333333" lon="102.044064616667">
        <ele>700.414</ele>
        <time>2024-07-25T18:52:48Z</time>
      </trkpt>
      <trkpt lat="-2.51230036666667" lon="102.044076883333">
        <ele>700.769</ele>
        <time>2024-07-25T18:52:50Z</time>
      </trkpt>
      <trkpt lat="-2.51222848333333" lon="102.0441025">
        <ele>702.724</ele>
        <time>2024-07-25T18:52:52Z</time>
      </trkpt>
      <trkpt lat="-2.51216106666667" lon="102.044148666667">
        <ele>705.555</ele>
        <time>2024-07-25T18:52:54Z</time>
      </trkpt>
      <trkpt lat="-2.51214161666667" lon="102.044206016667">
        <ele>702.243</ele>
        <time>2024-07-25T18:52:56Z</time>
      </trkpt>
      <trkpt lat="-2.51216985" lon="102.044280916667">
        <ele>698.088</ele>
        <time>2024-07-25T18:52:58Z</time>
      </trkpt>
      <trkpt lat="-2.51219925" lon="102.044339716667">
        <ele>698.964</ele>
        <time>2024-07-25T18:53:00Z</time>
      </trkpt>
      <trkpt lat="-2.51221041666667" lon="102.044394983333">
        <ele>698.276</ele>
        <time>2024-07-25T18:53:02Z</time>
      </trkpt>
      <trkpt lat="-2.51221218333333" lon="102.0444563">
        <ele>699.029</ele>
        <time>2024-07-25T18:53:04Z</time>
      </trkpt>
      <trkpt lat="-2.51221071666667" lon="102.04450445">
        <ele>699.036</ele>
        <time>2024-07-25T18:53:06Z</time>
      </trkpt>
      <trkpt lat="-2.5122318" lon="102.04455355">
        <ele>699.77</ele>
        <time>2024-07-25T18:53:08Z</time>
      </trkpt>
      <trkpt lat="-2.51223983333333" lon="102.0445792">
        <ele>699.357</ele>
        <time>2024-07-25T18:53:10Z</time>
      </trkpt>
      <trkpt lat="-2.5122528" lon="102.044607683333">
        <ele>699.357</ele>
        <time>2024-07-25T18:53:12Z</time>
      </trkpt>
      <trkpt lat="-2.5122635" lon="102.044632466667">
        <ele>701.275</ele>
        <time>2024-07-25T18:53:14Z</time>
      </trkpt>
      <trkpt lat="-2.51228015" lon="102.044660566667">
        <ele>702.216</ele>
        <time>2024-07-25T18:53:16Z</time>
      </trkpt>
      <trkpt lat="-2.51230446666667" lon="102.044692">
        <ele>701.918</ele>
        <time>2024-07-25T18:53:18Z</time>
      </trkpt>
      <trkpt lat="-2.51235568333333" lon="102.0447395">
        <ele>700.999</ele>
        <time>2024-07-25T18:53:20Z</time>
      </trkpt>
      <trkpt lat="-2.51243131666667" lon="102.044818683333">
        <ele>695.157</ele>
        <time>2024-07-25T18:53:22Z</time>
      </trkpt>
      <trkpt lat="-2.51246688333333" lon="102.044899816667">
        <ele>697.144</ele>
        <time>2024-07-25T18:53:24Z</time>
      </trkpt>
      <trkpt lat="-2.51246583333333" lon="102.044957633333">
        <ele>696.945</ele>
        <time>2024-07-25T18:53:26Z</time>
      </trkpt>
      <trkpt lat="-2.51246126666667" lon="102.0450049">
        <ele>697.66</ele>
        <time>2024-07-25T18:53:28Z</time>
      </trkpt>
      <trkpt lat="-2.5124329" lon="102.0450592">
        <ele>695.762</ele>
        <time>2024-07-25T18:53:30Z</time>
      </trkpt>
      <trkpt lat="-2.51236526666667" lon="102.045134533333">
        <ele>698.564</ele>
        <time>2024-07-25T18:53:32Z</time>
      </trkpt>
      <trkpt lat="-2.51224231666667" lon="102.045180933333">
        <ele>696.523</ele>
        <time>2024-07-25T18:53:34Z</time>
      </trkpt>
      <trkpt lat="-2.51213345" lon="102.045237083333">
        <ele>697.558</ele>
        <time>2024-07-25T18:53:36Z</time>
      </trkpt>
      <trkpt lat="-2.5120519" lon="102.045310716667">
        <ele>699.414</ele>
        <time>2024-07-25T18:53:38Z</time>
      </trkpt>
      <trkpt lat="-2.51197926666667" lon="102.04534415">
        <ele>703.172</ele>
        <time>2024-07-25T18:53:40Z</time>
      </trkpt>
      <trkpt lat="-2.51188123333333" lon="102.045389233333">
        <ele>706.384</ele>
        <time>2024-07-25T18:53:42Z</time>
      </trkpt>
      <trkpt lat="-2.51173871666667" lon="102.04539565">
        <ele>703.378</ele>
        <time>2024-07-25T18:53:44Z</time>
      </trkpt>
      <trkpt lat="-2.5116409" lon="102.045431283333">
        <ele>705.466</ele>
        <time>2024-07-25T18:53:46Z</time>
      </trkpt>
      <trkpt lat="-2.51152446666667" lon="102.0454213">
        <ele>703.712</ele>
        <time>2024-07-25T18:53:48Z</time>
      </trkpt>
      <trkpt lat="-2.51141395" lon="102.0454296">
        <ele>701.819</ele>
        <time>2024-07-25T18:53:50Z</time>
      </trkpt>
      <trkpt lat="-2.51128725" lon="102.045416066667">
        <ele>692.99</ele>
        <time>2024-07-25T18:53:52Z</time>
      </trkpt>
      <trkpt lat="-2.51128911666667" lon="102.045470066667">
        <ele>696.713</ele>
        <time>2024-07-25T18:53:54Z</time>
      </trkpt>
      <trkpt lat="-2.51129095" lon="102.045501233333">
        <ele>700.512</ele>
        <time>2024-07-25T18:53:56Z</time>
      </trkpt>
      <trkpt lat="-2.51130093333333" lon="102.045544266667">
        <ele>707.928</ele>
        <time>2024-07-25T18:53:58Z</time>
      </trkpt>
      <trkpt lat="-2.51131396666667" lon="102.045629083333">
        <ele>711.685</ele>
        <time>2024-07-25T18:54:00Z</time>
      </trkpt>
      <trkpt lat="-2.51132276666667" lon="102.0457456">
        <ele>717.283</ele>
        <time>2024-07-25T18:54:02Z</time>
      </trkpt>
      <trkpt lat="-2.5112689" lon="102.0458675">
        <ele>723.275</ele>
        <time>2024-07-25T18:54:04Z</time>
      </trkpt>
      <trkpt lat="-2.5111837" lon="102.04598375">
        <ele>725.468</ele>
        <time>2024-07-25T18:54:06Z</time>
      </trkpt>
      <trkpt lat="-2.5111226" lon="102.046104866667">
        <ele>724.118</ele>
        <time>2024-07-25T18:54:08Z</time>
      </trkpt>
      <trkpt lat="-2.51108238333333" lon="102.046227816667">
        <ele>720.561</ele>
        <time>2024-07-25T18:54:10Z</time>
      </trkpt>
      <trkpt lat="-2.51098998333333" lon="102.046342966667">
        <ele>721.875</ele>
        <time>2024-07-25T18:54:12Z</time>
      </trkpt>
      <trkpt lat="-2.51089343333333" lon="102.046447266667">
        <ele>720.954</ele>
        <time>2024-07-25T18:54:14Z</time>
      </trkpt>
      <trkpt lat="-2.5108123" lon="102.0465165">
        <ele>718.426</ele>
        <time>2024-07-25T18:54:16Z</time>
      </trkpt>
      <trkpt lat="-2.51071416666667" lon="102.046557516667">
        <ele>721.351</ele>
        <time>2024-07-25T18:54:18Z</time>
      </trkpt>
      <trkpt lat="-2.51059458333333" lon="102.046576433333">
        <ele>723.836</ele>
        <time>2024-07-25T18:54:20Z</time>
      </trkpt>
      <trkpt lat="-2.51048791666667" lon="102.0465754">
        <ele>726.665</ele>
        <time>2024-07-25T18:54:22Z</time>
      </trkpt>
      <trkpt lat="-2.51038868333333" lon="102.046584866667">
        <ele>727.165</ele>
        <time>2024-07-25T18:54:24Z</time>
      </trkpt>
      <trkpt lat="-2.51029791666667" lon="102.046612083333">
        <ele>728.464</ele>
        <time>2024-07-25T18:54:26Z</time>
      </trkpt>
      <trkpt lat="-2.51021428333333" lon="102.046659116667">
        <ele>730.298</ele>
        <time>2024-07-25T18:54:28Z</time>
      </trkpt>
      <trkpt lat="-2.51012011666667" lon="102.046705116667">
        <ele>735.567</ele>
        <time>2024-07-25T18:54:30Z</time>
      </trkpt>
      <trkpt lat="-2.51003243333333" lon="102.046738066667">
        <ele>735.615</ele>
        <time>2024-07-25T18:54:32Z</time>
      </trkpt>
      <trkpt lat="-2.5099407" lon="102.046780716667">
        <ele>734.452</ele>
        <time>2024-07-25T18:54:34Z</time>
      </trkpt>
      <trkpt lat="-2.50985235" lon="102.0468016">
        <ele>737.145</ele>
        <time>2024-07-25T18:54:36Z</time>
      </trkpt>
      <trkpt lat="-2.50981506666667" lon="102.0468135">
        <ele>738.83</ele>
        <time>2024-07-25T18:54:38Z</time>
      </trkpt>
    </trkseg>
  </trk>
  <trk>
    <name>Jalur 1</name>
    <desc>Description:</desc>
  </trk>
</gpx>